{"type":"FeatureCollection","features":[{"type":"Feature","properties":{},"geometry":{"type":"LineString","coordinates":[[22.711241,37.791051],[22.715398,37.792355],[22.726151,37.792675],[22.727086,37.792252],[22.745561,37.791911]]}},{"type":"Feature","properties":{},"geometry":{"type":"LineString","coordinates":[[22.74821,37.791258],[22.752841,37.79078]]}},{"type":"Feature","properties":{},"geometry":{"type":"LineString","coordinates":[[22.756255,37.783967],[22.76028,37.785485]]}},{"type":"Feature","properties":{},"geometry":{"type":"LineString","coordinates":[[22.759569,37.782698],[22.764863,37.784836]]}},{"type":"Feature","properties":{},"geometry":{"type":"LineString","coordinates":[[22.763249,37.782029],[22.771528,37.784975],[22.788751,37.789865],[22.798226,37.792449],[22.80163,37.792773]]}},{"type":"Feature","properties":{},"geometry":{"type":"LineString","coordinates":[[22.807443,37.788408],[22.817614,37.788336],[22.836707,37.78186],[22.841768,37.781122],[22.847063,37.78134],[22.853485,37.782282],[22.859001,37.784529],[22.865484,37.786204],[22.872017,37.787101]]}},{"type":"Feature","properties":{},"geometry":{"type":"LineString","coordinates":[[22.873824,37.787353],[22.878233,37.788098]]}},{"type":"Feature","properties":{},"geometry":{"type":"LineString","coordinates":[[22.881665,37.800889],[22.885045,37.801248]]}},{"type":"Feature","properties":{},"geometry":{"type":"LineString","coordinates":[[22.899453,37.778603],[22.907851,37.780263],[22.914615,37.781293],[22.918258,37.781491]]}},{"type":"Feature","properties":{},"geometry":{"type":"LineString","coordinates":[[22.909152,37.774455],[22.914067,37.774974],[22.920355,37.774712],[22.923743,37.775034],[22.930153,37.775604]]}},{"type":"Feature","properties":{},"geometry":{"type":"LineString","coordinates":[[22.898503,37.766046],[22.915603,37.766066],[22.918017,37.767605],[22.922938,37.768044],[22.926325,37.76779]]}},{"type":"Feature","properties":{},"geometry":{"type":"LineString","coordinates":[[22.910308,37.760767],[22.918743,37.761328],[22.926183,37.762304],[22.933006,37.763689],[22.934048,37.763938]]}},{"type":"Feature","properties":{},"geometry":{"type":"LineString","coordinates":[[22.934086,37.761321],[22.931933,37.761241],[22.92588,37.760314],[22.92108,37.759394],[22.917927,37.758947]]}},{"type":"Feature","properties":{},"geometry":{"type":"LineString","coordinates":[[22.922202,37.754188],[22.929076,37.756948],[22.934129,37.758283]]}},{"type":"Feature","properties":{},"geometry":{"type":"LineString","coordinates":[[22.783999,37.724106],[22.780759,37.724827],[22.776504,37.726431],[22.770256,37.727696],[22.763589,37.729487],[22.759011,37.730489],[22.755096,37.731867],[22.751104,37.732916],[22.748154,37.734115]]}},{"type":"Feature","properties":{},"geometry":{"type":"LineString","coordinates":[[22.806979,37.749454],[22.814306,37.751611],[22.822621,37.753327],[22.830409,37.753972],[22.836808,37.754316],[22.842044,37.754021],[22.847145,37.753307],[22.848177,37.754869],[22.855339,37.75524],[22.860986,37.756391],[22.866534,37.758009],[22.868136,37.758149],[22.874035,37.75968],[22.882064,37.762571],[22.885591,37.762742]]}},{"type":"Feature","properties":{},"geometry":{"type":"LineString","coordinates":[[22.883501,37.751335],[22.881579,37.748585],[22.879753,37.745953],[22.87771,37.743832],[22.876457,37.742096],[22.875532,37.741686]]}},{"type":"Feature","properties":{},"geometry":{"type":"LineString","coordinates":[[22.852807,37.770523],[22.85664,37.77062],[22.857955,37.771322],[22.86578,37.771143]]}},{"type":"Feature","properties":{},"geometry":{"type":"LineString","coordinates":[[22.862241,37.768174],[22.868439,37.768007],[22.872973,37.768242],[22.874228,37.768204]]}},{"type":"Feature","properties":{},"geometry":{"type":"LineString","coordinates":[[22.882111,37.767583],[22.870481,37.765238],[22.852761,37.765903]]}},{"type":"Feature","properties":{},"geometry":{"type":"LineString","coordinates":[[22.928052,37.781085],[22.933742,37.785229]]}},{"type":"Feature","properties":{},"geometry":{"type":"LineString","coordinates":[[22.892071,37.658025],[22.896855,37.661138],[22.904766,37.667501],[22.912324,37.670789],[22.925156,37.68004],[22.928539,37.682405]]}},{"type":"Feature","properties":{},"geometry":{"type":"LineString","coordinates":[[22.919632,37.667632],[22.928045,37.670545],[22.93424,37.672741],[22.935349,37.673118]]}},{"type":"Feature","properties":{},"geometry":{"type":"LineString","coordinates":[[22.716425,37.794374],[22.722114,37.799593]]}},{"type":"Feature","properties":{},"geometry":{"type":"LineString","coordinates":[[22.665471,37.65833],[22.670521,37.645801],[22.677818,37.632726],[22.687458,37.615681],[22.691638,37.605886],[22.694469,37.59794],[22.702262,37.585756],[22.707287,37.572583],[22.714342,37.556555],[22.731354,37.526315],[22.736132,37.522244],[22.738533,37.515758]]}},{"type":"Feature","properties":{},"geometry":{"type":"LineString","coordinates":[[22.711241,37.791051],[22.70317,37.785794],[22.687751,37.775391],[22.671879,37.763021],[22.660791,37.754634],[22.64912,37.74472],[22.640544,37.737391],[22.633305,37.73013],[22.625254,37.725664],[22.613132,37.720776],[22.593756,37.711749],[22.581271,37.706655],[22.572284,37.702868],[22.566037,37.69689],[22.555541,37.692167]]}},{"type":"Feature","properties":{},"geometry":{"type":"LineString","coordinates":[[22.607272,37.718047],[22.603741,37.723389],[22.592173,37.739369],[22.580603,37.753108],[22.571779,37.76637],[22.565535,37.771273]]}},{"type":"Feature","properties":{},"geometry":{"type":"LineString","coordinates":[[22.565535,37.771273],[22.557359,37.776201],[22.553794,37.782038]]}},{"type":"Feature","properties":{},"geometry":{"type":"LineString","coordinates":[[22.597128,37.79659],[22.602936,37.797059],[22.608971,37.798312]]}},{"type":"Feature","properties":{},"geometry":{"type":"LineString","coordinates":[[22.616772,37.798404],[22.617735,37.79839],[22.623384,37.797874],[22.627623,37.796063],[22.635341,37.795518],[22.642897,37.79388],[22.646478,37.793501]]}},{"type":"Feature","properties":{},"geometry":{"type":"LineString","coordinates":[[22.648949,37.792919],[22.660681,37.789491],[22.669908,37.78346],[22.679945,37.778022],[22.691231,37.773926],[22.705926,37.767571]]}},{"type":"Feature","properties":{},"geometry":{"type":"LineString","coordinates":[[22.88362,37.521149],[22.860435,37.551091]]}},{"type":"Feature","properties":{},"geometry":{"type":"LineString","coordinates":[[22.860435,37.551091],[22.854033,37.560595],[22.8444,37.570908],[22.841588,37.573886]]}},{"type":"Feature","properties":{},"geometry":{"type":"LineString","coordinates":[[22.830217,37.586835],[22.817262,37.603847]]}},{"type":"Feature","properties":{},"geometry":{"type":"LineString","coordinates":[[22.817262,37.603847],[22.80753,37.616321]]}},{"type":"Feature","properties":{},"geometry":{"type":"LineString","coordinates":[[22.841558,37.573918],[22.830217,37.586835]]}},{"type":"Feature","properties":{},"geometry":{"type":"LineString","coordinates":[[22.867774,37.541617],[22.856782,37.514666]]}},{"type":"Feature","properties":{},"geometry":{"type":"LineString","coordinates":[[22.87631,37.56265],[22.890859,37.613755]]}},{"type":"Feature","properties":{},"geometry":{"type":"LineString","coordinates":[[22.896351,37.632195],[22.899582,37.644867]]}},{"type":"Feature","properties":{},"geometry":{"type":"LineString","coordinates":[[22.896351,37.632195],[22.890859,37.613755]]}},{"type":"Feature","properties":{},"geometry":{"type":"LineString","coordinates":[[22.701467,37.617953],[22.691007,37.636397]]}},{"type":"Feature","properties":{},"geometry":{"type":"LineString","coordinates":[[22.691007,37.636397],[22.680523,37.646773]]}},{"type":"Feature","properties":{},"geometry":{"type":"LineString","coordinates":[[22.669615,37.659157],[22.677941,37.650106]]}},{"type":"Feature","properties":{},"geometry":{"type":"LineString","coordinates":[[22.878553,37.801187],[22.880061,37.794878],[22.881261,37.778662],[22.883592,37.760661]]}},{"type":"Feature","properties":{},"geometry":{"type":"LineString","coordinates":[[22.756591,37.799962],[22.756255,37.783967]]}},{"type":"Feature","properties":{},"geometry":{"type":"LineString","coordinates":[[22.66265,37.66732],[22.653522,37.675116],[22.647298,37.681912],[22.643142,37.687681],[22.639638,37.691156],[22.633238,37.695605],[22.62603,37.699517],[22.618499,37.707385],[22.607272,37.718047]]}},{"type":"Feature","properties":{},"geometry":{"type":"LineString","coordinates":[[22.734986,37.644781],[22.725953,37.647496],[22.717914,37.651193],[22.709195,37.654137],[22.698066,37.65682],[22.690136,37.658746],[22.677203,37.663417],[22.668345,37.667787],[22.648993,37.672316],[22.637055,37.678358],[22.626345,37.681301],[22.612905,37.685897]]}},{"type":"Feature","properties":{},"geometry":{"type":"LineString","coordinates":[[22.604325,37.690446],[22.61768,37.690538],[22.638792,37.691894]]}},{"type":"Feature","properties":{},"geometry":{"type":"LineString","coordinates":[[22.645428,37.69383],[22.665676,37.694799]]}},{"type":"Feature","properties":{},"geometry":{"type":"LineString","coordinates":[[22.702576,37.695978],[22.682403,37.695383]]}},{"type":"Feature","properties":{},"geometry":{"type":"LineString","coordinates":[[22.724668,37.726582],[22.706521,37.726331],[22.694606,37.724771],[22.682718,37.724542],[22.658088,37.725439],[22.625254,37.725664]]}},{"type":"Feature","properties":{},"geometry":{"type":"LineString","coordinates":[[22.620998,37.723948],[22.597825,37.725328],[22.591689,37.724187],[22.582401,37.725452],[22.571157,37.727039]]}},{"type":"Feature","properties":{},"geometry":{"type":"LineString","coordinates":[[22.84851,37.544424],[22.856479,37.547612]]}},{"type":"Feature","properties":{},"geometry":{"type":"LineString","coordinates":[[22.842782,37.549111],[22.853995,37.555615]]}},{"type":"Feature","properties":{},"geometry":{"type":"LineString","coordinates":[[22.79995,37.56225],[22.815304,37.541703]]}},{"type":"Feature","properties":{},"geometry":{"type":"LineString","coordinates":[[22.817889,37.545463],[22.825682,37.535419],[22.829551,37.529262],[22.838473,37.518855],[22.849834,37.512516],[22.855261,37.509896]]}}]}