{"type":"FeatureCollection","features":[{"type":"Feature","properties":{"name":"Irakleio (Crete)","name_gr":"Ηρακλείου Κρήτης","code":"7101","pop21":179302,"pop11":173993,"area":243.4},"geometry":{"type":"MultiPolygon","coordinates":[[[[25.134788,35.342804],[25.135404,35.342582],[25.13645,35.342861],[25.136949,35.343784],[25.137577,35.343868],[25.138416,35.342853],[25.140207,35.342151],[25.141239,35.342087],[25.142297,35.342598],[25.142168,35.343708],[25.142893,35.343883],[25.143535,35.343803],[25.144254,35.342048],[25.144951,35.342239],[25.145229,35.342724],[25.14489,35.344055],[25.145347,35.344211],[25.146723,35.342342],[25.147588,35.342693],[25.146533,35.344497],[25.146995,35.344185],[25.147585,35.344375],[25.148969,35.342247],[25.149597,35.342422],[25.150993,35.342201],[25.153309,35.34314],[25.153553,35.343239],[25.15403,35.34367],[25.15497,35.346462],[25.153862,35.3479],[25.155388,35.346576],[25.156505,35.346008],[25.15765,35.345932],[25.158211,35.34536],[25.158644,35.345309],[25.161224,35.345665],[25.164421,35.345173],[25.166248,35.345264],[25.167452,35.344776],[25.174982,35.34602],[25.176656,35.345794],[25.177788,35.34518],[25.178807,35.345035],[25.184736,35.345616],[25.186134,35.344864],[25.186138,35.343403],[25.187229,35.342499],[25.187666,35.341278],[25.188944,35.340481],[25.190046,35.340469],[25.191568,35.341644],[25.192674,35.341823],[25.192304,35.339725],[25.19132,35.337985],[25.191118,35.335853],[25.191452,35.334911],[25.192105,35.334269],[25.191673,35.333541],[25.191675,35.333183],[25.191858,35.332981],[25.19183,35.332564],[25.191888,35.332063],[25.192064,35.331894],[25.192423,35.331831],[25.193035,35.331866],[25.193405,35.331794],[25.193607,35.331667],[25.193725,35.331511],[25.193771,35.330947],[25.193896,35.330552],[25.194069,35.330419],[25.194757,35.33017],[25.19512,35.329878],[25.195281,35.329679],[25.195561,35.329453],[25.195769,35.329221],[25.195944,35.329014],[25.196035,35.328744],[25.196014,35.328506],[25.195966,35.328281],[25.195813,35.327953],[25.195767,35.327839],[25.195783,35.327703],[25.195798,35.327531],[25.195734,35.327388],[25.195688,35.32721],[25.195616,35.327039],[25.195517,35.326875],[25.19541,35.326726],[25.195303,35.32657],[25.195319,35.326433],[25.195455,35.326203],[25.195609,35.325973],[25.195711,35.325785],[25.195838,35.325505],[25.195903,35.325182],[25.196081,35.324844],[25.1964,35.324555],[25.196878,35.3244],[25.197932,35.324225],[25.198053,35.324152],[25.198244,35.324028],[25.198398,35.323827],[25.19864,35.323652],[25.198899,35.323464],[25.19907,35.323247],[25.199223,35.322945],[25.199209,35.322595],[25.199142,35.322159],[25.198995,35.321731],[25.198833,35.321403],[25.198635,35.320997],[25.198683,35.320668],[25.198835,35.320337],[25.199078,35.319655],[25.199249,35.319374],[25.199419,35.3191],[25.199616,35.31879],[25.199621,35.318533],[25.199582,35.318311],[25.199474,35.318076],[25.199295,35.317763],[25.199213,35.317564],[25.199051,35.317243],[25.198927,35.317108],[25.198769,35.317017],[25.198566,35.31689],[25.198459,35.316734],[25.198324,35.316449],[25.198152,35.315491],[25.198186,35.314811],[25.19828,35.314631],[25.198502,35.31435],[25.19897,35.314102],[25.199552,35.313874],[25.200177,35.313639],[25.200723,35.313348],[25.201305,35.313134],[25.201696,35.313037],[25.20236,35.312559],[25.202455,35.3124],[25.202462,35.3123],[25.202416,35.312128],[25.202353,35.312015],[25.202236,35.311794],[25.202208,35.311608],[25.202161,35.311422],[25.202027,35.311238],[25.2017,35.311029],[25.201456,35.310964],[25.201271,35.31088],[25.201207,35.31068],[25.201354,35.310006],[25.201541,35.309604],[25.201744,35.309172],[25.201941,35.308913],[25.202199,35.308652],[25.2022,35.308173],[25.202098,35.307745],[25.201853,35.307139],[25.201621,35.306783],[25.201309,35.30635],[25.201398,35.305891],[25.201536,35.305167],[25.201779,35.304506],[25.202116,35.303672],[25.202522,35.302802],[25.20275,35.302263],[25.202779,35.301862],[25.202767,35.301597],[25.202621,35.301212],[25.202501,35.30077],[25.202484,35.30019],[25.202723,35.299645],[25.203014,35.298947],[25.203408,35.298449],[25.203567,35.298287],[25.203727,35.297884],[25.203745,35.297061],[25.203704,35.296632],[25.203538,35.295696],[25.203583,35.294926],[25.203525,35.294576],[25.203271,35.294182],[25.203165,35.294111],[25.203082,35.294091],[25.202293,35.293774],[25.201563,35.293233],[25.201406,35.292867],[25.201558,35.292469],[25.20174,35.292172],[25.20281,35.290582],[25.203352,35.289837],[25.204051,35.28909],[25.204327,35.28852],[25.204395,35.288004],[25.204314,35.287632],[25.204204,35.287261],[25.203954,35.28651],[25.203936,35.286057],[25.204124,35.285759],[25.204132,35.285545],[25.204075,35.28524],[25.203928,35.28475],[25.204009,35.28389],[25.204367,35.282951],[25.204536,35.282597],[25.204508,35.282273],[25.20443,35.282063],[25.204369,35.281902],[25.204476,35.281643],[25.204612,35.281398],[25.204749,35.281235],[25.204857,35.281081],[25.204902,35.28098],[25.204933,35.280718],[25.204559,35.280178],[25.203864,35.279612],[25.203503,35.279215],[25.203306,35.278849],[25.203281,35.278391],[25.203609,35.278088],[25.20403,35.277893],[25.204332,35.277851],[25.204634,35.277815],[25.204505,35.276943],[25.20435,35.276301],[25.20429,35.275748],[25.204197,35.275367],[25.204029,35.27429],[25.20395,35.273657],[25.203923,35.273264],[25.203874,35.272455],[25.203673,35.271842],[25.203114,35.271413],[25.202511,35.271114],[25.20224,35.270897],[25.202121,35.27076],[25.20177,35.270191],[25.201603,35.269963],[25.201486,35.269869],[25.201334,35.269837],[25.201154,35.269839],[25.200804,35.269814],[25.20067,35.269786],[25.200418,35.269655],[25.200167,35.269596],[25.199842,35.269628],[25.199679,35.269639],[25.199493,35.26965],[25.199189,35.269816],[25.197134,35.270154],[25.194881,35.271292],[25.19313,35.27188],[25.192668,35.272301],[25.192194,35.273269],[25.190003,35.274575],[25.189031,35.274812],[25.187177,35.274446],[25.184779,35.27453],[25.18361,35.274322],[25.18151,35.275287],[25.179742,35.27641],[25.177783,35.27841],[25.174224,35.281425],[25.173401,35.281459],[25.170963,35.280786],[25.168613,35.28095],[25.165352,35.28032],[25.165583,35.279769],[25.165428,35.276684],[25.164776,35.273589],[25.164095,35.272903],[25.161437,35.269808],[25.160696,35.268266],[25.160193,35.266074],[25.157785,35.261689],[25.155761,35.256875],[25.155296,35.256271],[25.152391,35.256191],[25.149049,35.255743],[25.146297,35.255027],[25.144746,35.255211],[25.141544,35.254764],[25.14111,35.25446],[25.139623,35.252461],[25.138107,35.251586],[25.138064,35.249871],[25.139144,35.248312],[25.141064,35.246243],[25.142039,35.244069],[25.142418,35.242311],[25.142381,35.241335],[25.142089,35.240639],[25.13983,35.238269],[25.138202,35.237481],[25.138278,35.233664],[25.138086,35.230028],[25.137573,35.225536],[25.13737,35.22509],[25.136876,35.224761],[25.135851,35.224441],[25.134451,35.22444],[25.131249,35.225392],[25.12996,35.226129],[25.129238,35.226889],[25.128632,35.226934],[25.126565,35.22561],[25.123193,35.224047],[25.122023,35.223956],[25.11917,35.22439],[25.11678,35.223599],[25.116342,35.222537],[25.11715,35.22226],[25.118226,35.221513],[25.118469,35.220216],[25.120233,35.217306],[25.12313,35.215693],[25.126483,35.212879],[25.128609,35.210517],[25.129552,35.209023],[25.130837,35.207865],[25.132241,35.207177],[25.132681,35.205931],[25.132808,35.204358],[25.133702,35.203124],[25.134701,35.202282],[25.136613,35.201466],[25.138208,35.200283],[25.139336,35.199058],[25.13952,35.197056],[25.138692,35.195359],[25.13866,35.194337],[25.139095,35.194077],[25.140573,35.194355],[25.142179,35.194214],[25.143232,35.193408],[25.142996,35.192957],[25.143033,35.190208],[25.141765,35.185394],[25.141958,35.183431],[25.143146,35.179742],[25.145414,35.176115],[25.148263,35.172964],[25.147206,35.171528],[25.145643,35.170744],[25.143695,35.170386],[25.142024,35.168972],[25.141089,35.168824],[25.139718,35.169158],[25.13846,35.17005],[25.1379,35.170191],[25.136779,35.16991],[25.13587,35.17024],[25.13531,35.170067],[25.134812,35.166025],[25.133664,35.16206],[25.133849,35.161524],[25.135063,35.160318],[25.135314,35.159115],[25.134551,35.158244],[25.131713,35.156124],[25.130816,35.155156],[25.130153,35.154193],[25.128996,35.150789],[25.128096,35.149211],[25.124559,35.148907],[25.122349,35.148758],[25.117777,35.149406],[25.112997,35.149776],[25.110882,35.150573],[25.108819,35.151805],[25.106803,35.15263],[25.096459,35.154666],[25.094263,35.155339],[25.092638,35.156584],[25.091746,35.158085],[25.091501,35.159121],[25.091126,35.159418],[25.090518,35.159324],[25.089068,35.15852],[25.087476,35.156982],[25.085355,35.155645],[25.083979,35.154433],[25.08122,35.155321],[25.073039,35.159544],[25.06331,35.165721],[25.061015,35.167711],[25.064314,35.17265],[25.064325,35.173174],[25.063465,35.1734],[25.057566,35.172884],[25.053724,35.173053],[25.05032,35.173834],[25.04705,35.174151],[25.04414,35.174766],[25.041924,35.175602],[25.040189,35.175839],[25.03769,35.171604],[25.035446,35.165816],[25.034238,35.164426],[25.033466,35.164126],[25.031918,35.16399],[25.023758,35.164112],[25.021662,35.164383],[25.020756,35.166084],[25.021015,35.167516],[25.020704,35.168257],[25.019535,35.169111],[25.017167,35.170108],[25.01273,35.171294],[25.000681,35.171557],[24.997783,35.170108],[24.995089,35.167883],[24.99406,35.167296],[24.992397,35.16677],[24.990994,35.16693],[24.98892,35.167928],[24.985424,35.17036],[24.983142,35.171418],[24.977028,35.172969],[24.97413,35.174005],[24.971323,35.174633],[24.968377,35.17573],[24.966185,35.17629],[24.963557,35.177627],[24.959569,35.180573],[24.957662,35.181466],[24.9558,35.18271],[24.954863,35.182411],[24.952072,35.179682],[24.950527,35.17847],[24.949417,35.178081],[24.948371,35.179582],[24.945736,35.185989],[24.945197,35.186673],[24.947741,35.193937],[24.948175,35.194509],[24.949096,35.194738],[24.957303,35.195241],[24.960671,35.195908],[24.966878,35.200505],[24.971639,35.203474],[24.974189,35.205339],[24.977951,35.208558],[24.980828,35.210443],[24.981718,35.210721],[24.984929,35.211063],[24.987513,35.212354],[24.988301,35.21249],[24.989094,35.212251],[24.990289,35.211472],[24.991757,35.209472],[24.995639,35.210779],[24.998741,35.212462],[24.999902,35.213331],[25.002004,35.216088],[25.003555,35.219531],[25.003764,35.220314],[25.00527,35.222771],[25.005335,35.224282],[25.006818,35.225708],[25.008742,35.226894],[25.009617,35.227796],[25.010192,35.229112],[25.009326,35.23049],[25.009296,35.231042],[25.010449,35.232463],[25.010901,35.232533],[25.011372,35.232252],[25.013939,35.229685],[25.01609,35.228806],[25.019005,35.230675],[25.018284,35.23465],[25.017372,35.237856],[25.015582,35.242227],[25.015474,35.24365],[25.018,35.248572],[25.017382,35.250109],[25.017384,35.252791],[25.017927,35.257796],[25.018339,35.259098],[25.019083,35.259784],[25.026898,35.261862],[25.029862,35.261705],[25.033892,35.262703],[25.034642,35.26219],[25.038374,35.261169],[25.049165,35.259339],[25.051384,35.259124],[25.052176,35.259451],[25.049838,35.262152],[25.048361,35.265968],[25.048459,35.268009],[25.049322,35.269819],[25.0501,35.270615],[25.051875,35.271766],[25.056938,35.273834],[25.05731,35.276546],[25.057884,35.278445],[25.059029,35.279889],[25.059895,35.280472],[25.06219,35.281087],[25.063103,35.282148],[25.06459,35.284509],[25.065706,35.286791],[25.067667,35.289094],[25.068907,35.290106],[25.072281,35.293766],[25.073083,35.294978],[25.073445,35.296128],[25.073087,35.297922],[25.071131,35.301586],[25.070827,35.302566],[25.070745,35.304418],[25.070076,35.307985],[25.069255,35.31074],[25.073502,35.310808],[25.076099,35.31059],[25.076481,35.310622],[25.07933,35.310864],[25.081956,35.311282],[25.082011,35.311008],[25.082046,35.310995],[25.082598,35.311023],[25.083,35.311022],[25.083397,35.311047],[25.083767,35.31108],[25.084337,35.311116],[25.085157,35.311179],[25.085879,35.311227],[25.086067,35.311224],[25.086247,35.311251],[25.086449,35.311275],[25.086901,35.311292],[25.087242,35.311315],[25.087402,35.311299],[25.0877,35.311342],[25.088212,35.311528],[25.088664,35.311777],[25.088987,35.312],[25.089456,35.312375],[25.089671,35.3126],[25.090022,35.312883],[25.090644,35.313301],[25.091263,35.313653],[25.091649,35.313857],[25.09161,35.313564],[25.092833,35.31337],[25.093573,35.313217],[25.093901,35.31315],[25.093898,35.313486],[25.093832,35.313653],[25.093807,35.313869],[25.094154,35.313925],[25.094344,35.313952],[25.094392,35.314008],[25.094425,35.314084],[25.09453,35.314242],[25.094628,35.314116],[25.094987,35.314046],[25.095311,35.314056],[25.09559,35.314085],[25.096208,35.314177],[25.096441,35.314196],[25.096472,35.314143],[25.096514,35.313846],[25.096582,35.313842],[25.096635,35.313851],[25.096886,35.313891],[25.097053,35.313904],[25.097205,35.313895],[25.097367,35.313867],[25.09771,35.313798],[25.097837,35.313829],[25.09774,35.314032],[25.097653,35.314195],[25.09756,35.314342],[25.097511,35.314497],[25.097483,35.314806],[25.097495,35.315039],[25.097514,35.315231],[25.09751,35.315467],[25.097415,35.315699],[25.097358,35.315871],[25.097239,35.316123],[25.0972,35.316199],[25.097157,35.316303],[25.09714,35.316447],[25.097057,35.316507],[25.096971,35.316597],[25.096953,35.316707],[25.096828,35.316832],[25.096721,35.31701],[25.096769,35.31713],[25.097009,35.317302],[25.097148,35.317367],[25.09728,35.317416],[25.097379,35.317443],[25.097412,35.317485],[25.097401,35.317527],[25.097324,35.317549],[25.097217,35.317603],[25.097088,35.317703],[25.097072,35.317813],[25.097097,35.317916],[25.097142,35.318041],[25.097195,35.318101],[25.097256,35.318133],[25.097307,35.318156],[25.097388,35.318183],[25.097594,35.31824],[25.097706,35.318346],[25.097766,35.31846],[25.097714,35.318511],[25.097581,35.318545],[25.097523,35.31862],[25.097507,35.318663],[25.097521,35.31888],[25.09759,35.319008],[25.097646,35.319108],[25.097653,35.319179],[25.097585,35.319294],[25.097521,35.319488],[25.097525,35.319593],[25.09752,35.319665],[25.097449,35.319773],[25.097311,35.319946],[25.097235,35.320135],[25.097085,35.320229],[25.096996,35.32033],[25.096902,35.320694],[25.096901,35.320844],[25.096945,35.320858],[25.097065,35.320854],[25.097088,35.32084],[25.097169,35.320834],[25.097251,35.320843],[25.097292,35.320902],[25.097463,35.321228],[25.097575,35.321334],[25.097706,35.321383],[25.097756,35.321396],[25.097844,35.321436],[25.0979,35.321729],[25.097974,35.321946],[25.098114,35.322487],[25.098159,35.322647],[25.098107,35.32281],[25.098069,35.322927],[25.098031,35.323188],[25.098047,35.323355],[25.098011,35.323851],[25.097897,35.324438],[25.097787,35.324679],[25.097595,35.325014],[25.09728,35.325292],[25.097025,35.325527],[25.096836,35.325718],[25.096703,35.325898],[25.09661,35.326143],[25.096529,35.326308],[25.096514,35.326437],[25.096578,35.326705],[25.096583,35.327005],[25.09661,35.327098],[25.096646,35.327194],[25.096636,35.327438],[25.096712,35.32757],[25.096821,35.328205],[25.096813,35.328563],[25.096808,35.32885],[25.096961,35.329138],[25.097036,35.329259],[25.097243,35.329343],[25.097463,35.329423],[25.097778,35.329543],[25.097877,35.329607],[25.097911,35.32969],[25.097891,35.329771],[25.097814,35.329798],[25.097575,35.32983],[25.097381,35.329883],[25.097238,35.330018],[25.097198,35.330154],[25.097211,35.330262],[25.097254,35.330356],[25.097311,35.330452],[25.097333,35.330534],[25.097309,35.330639],[25.097182,35.330719],[25.097062,35.330808],[25.096906,35.330981],[25.096795,35.331173],[25.096818,35.331348],[25.096918,35.33149],[25.097052,35.331621],[25.097121,35.331677],[25.09727,35.331838],[25.097267,35.33204],[25.097445,35.332675],[25.097545,35.332996],[25.097714,35.333166],[25.097956,35.333238],[25.098674,35.333465],[25.098955,35.333585],[25.099011,35.333625],[25.099023,35.33365],[25.09898,35.333683],[25.098912,35.333699],[25.098852,35.33373],[25.098834,35.333776],[25.098818,35.33381],[25.098703,35.333859],[25.098559,35.333912],[25.09851,35.333939],[25.098462,35.333997],[25.098427,35.334086],[25.098395,35.334194],[25.098409,35.334345],[25.098563,35.334433],[25.098672,35.334479],[25.098765,35.334523],[25.098829,35.334568],[25.098879,35.334628],[25.098896,35.33468],[25.098961,35.334866],[25.098925,35.335021],[25.098896,35.335143],[25.098892,35.335211],[25.098912,35.33526],[25.09898,35.33531],[25.099062,35.335331],[25.099178,35.335315],[25.099273,35.335303],[25.099323,35.335295],[25.099366,35.335288],[25.09942,35.335283],[25.099478,35.335281],[25.099622,35.335255],[25.099681,35.335259],[25.099713,35.335285],[25.099766,35.335396],[25.099779,35.335508],[25.099727,35.335675],[25.099555,35.335891],[25.099473,35.33603],[25.099487,35.336167],[25.099535,35.336268],[25.099599,35.336348],[25.099749,35.336478],[25.099889,35.336563],[25.100067,35.336645],[25.100564,35.336709],[25.10098,35.336742],[25.101067,35.336767],[25.101086,35.336824],[25.101058,35.336887],[25.10104,35.336925],[25.100729,35.337662],[25.100608,35.338873],[25.100874,35.338897],[25.106468,35.339153],[25.108185,35.339527],[25.110529,35.339496],[25.113376,35.339874],[25.115871,35.340927],[25.118089,35.340805],[25.119106,35.341472],[25.122036,35.341816],[25.125513,35.341846],[25.127729,35.342304],[25.128374,35.341556],[25.129114,35.341621],[25.129602,35.341888],[25.129627,35.342522],[25.134311,35.343467],[25.139183,35.347362],[25.140854,35.348354],[25.145288,35.349204],[25.14714,35.350513],[25.145862,35.349121],[25.141008,35.34811],[25.136762,35.3447],[25.134439,35.343376],[25.134788,35.342804]]]]}},{"type":"Feature","properties":{"name":"Kalamata","name_gr":"Καλαματας","code":"4401","pop21":72906,"pop11":69849,"area":441.7},"geometry":{"type":"MultiPolygon","coordinates":[[[[22.078936,37.229406],[22.084775,37.229175],[22.097762,37.229546],[22.103992,37.229234],[22.105702,37.228584],[22.110768,37.224013],[22.112464,37.221671],[22.112831,37.220263],[22.112955,37.216011],[22.114307,37.211999],[22.114617,37.209163],[22.115548,37.207235],[22.117721,37.205394],[22.120693,37.203685],[22.124848,37.198035],[22.126405,37.196868],[22.129455,37.195547],[22.132728,37.194892],[22.136545,37.193819],[22.137426,37.19317],[22.137567,37.191921],[22.137258,37.190282],[22.136597,37.187946],[22.135913,37.18661],[22.135606,37.184854],[22.135896,37.182062],[22.13642,37.180186],[22.136993,37.179311],[22.138767,37.177874],[22.141614,37.17619],[22.144111,37.174124],[22.1451,37.173565],[22.146736,37.173047],[22.150846,37.172551],[22.16266,37.173132],[22.165185,37.17217],[22.168535,37.169779],[22.172281,37.168111],[22.174294,37.166658],[22.174736,37.165885],[22.176848,37.160662],[22.177106,37.159121],[22.177758,37.157217],[22.178911,37.154394],[22.17973,37.153229],[22.180065,37.152277],[22.180163,37.151278],[22.179695,37.150829],[22.179052,37.149303],[22.178778,37.149225],[22.178178,37.148141],[22.177403,37.14595],[22.177456,37.145289],[22.177765,37.144661],[22.178651,37.143762],[22.18165,37.141379],[22.182163,37.140709],[22.182965,37.13869],[22.183531,37.138081],[22.185549,37.13742],[22.186641,37.137388],[22.188031,37.137502],[22.189511,37.137142],[22.193697,37.136646],[22.196509,37.13666],[22.198371,37.137233],[22.201015,37.139504],[22.203143,37.141471],[22.205065,37.144179],[22.205295,37.145699],[22.204614,37.149281],[22.20667,37.15096],[22.208521,37.153594],[22.209481,37.154227],[22.211454,37.154772],[22.213584,37.155702],[22.214723,37.156514],[22.215492,37.157453],[22.215362,37.15907],[22.215028,37.159978],[22.212387,37.163589],[22.212427,37.164222],[22.213328,37.165016],[22.214234,37.165589],[22.21692,37.166351],[22.219736,37.166275],[22.22168,37.164965],[22.222248,37.163472],[22.22268,37.163096],[22.225511,37.161578],[22.227155,37.160426],[22.229039,37.159924],[22.230568,37.160064],[22.231112,37.160381],[22.23156,37.160903],[22.231995,37.161954],[22.23254,37.163832],[22.232946,37.164545],[22.233828,37.165412],[22.235261,37.166257],[22.237734,37.167041],[22.239944,37.167372],[22.244275,37.168585],[22.248649,37.169277],[22.251399,37.169162],[22.252056,37.168232],[22.254491,37.166673],[22.255265,37.165887],[22.256023,37.16349],[22.256169,37.161899],[22.257182,37.159803],[22.258229,37.15885],[22.26147,37.154358],[22.263493,37.152409],[22.265783,37.149696],[22.266272,37.148448],[22.270405,37.141059],[22.270735,37.140556],[22.271446,37.140238],[22.274925,37.139609],[22.275457,37.138984],[22.274303,37.135143],[22.274233,37.133385],[22.274688,37.132055],[22.275283,37.131386],[22.275532,37.1307],[22.275601,37.126753],[22.275877,37.126106],[22.277773,37.124641],[22.278589,37.123155],[22.278825,37.121787],[22.278842,37.120429],[22.279419,37.119374],[22.279639,37.118153],[22.27896,37.115717],[22.278912,37.114051],[22.279269,37.112964],[22.280854,37.111348],[22.282387,37.110642],[22.288767,37.109542],[22.291206,37.109679],[22.293734,37.110548],[22.295922,37.111034],[22.29832,37.110722],[22.299306,37.109142],[22.300988,37.104834],[22.30261,37.101428],[22.302535,37.099803],[22.301195,37.097096],[22.301901,37.092956],[22.3019,37.091036],[22.301677,37.090296],[22.301231,37.088858],[22.299287,37.086792],[22.299191,37.083294],[22.298866,37.082278],[22.297555,37.080994],[22.297079,37.080027],[22.296071,37.075405],[22.294507,37.072282],[22.292873,37.070252],[22.291969,37.069249],[22.289475,37.067411],[22.285273,37.064975],[22.275599,37.060108],[22.272404,37.058023],[22.270711,37.056207],[22.270046,37.05477],[22.26967,37.052724],[22.266022,37.053501],[22.261357,37.053252],[22.259758,37.052978],[22.258478,37.052472],[22.259268,37.050925],[22.262641,37.046898],[22.262946,37.046231],[22.262442,37.0444],[22.260458,37.041632],[22.258184,37.039329],[22.257318,37.037701],[22.256673,37.03489],[22.256503,37.032602],[22.25611,37.032317],[22.253498,37.032052],[22.249401,37.031059],[22.248979,37.029116],[22.248108,37.02794],[22.245066,37.026657],[22.241989,37.025726],[22.236176,37.024584],[22.233349,37.024571],[22.228842,37.025698],[22.217425,37.026679],[22.210509,37.027631],[22.20592,37.027053],[22.200735,37.027674],[22.198321,37.028192],[22.196901,37.021915],[22.19623,37.017813],[22.196057,37.015109],[22.19665,37.013926],[22.200103,37.012662],[22.203079,37.012514],[22.204554,37.01207],[22.205799,37.010948],[22.206719,37.00809],[22.207771,37.006681],[22.209183,37.006105],[22.222422,37.003658],[22.223542,37.002547],[22.224027,36.99892],[22.221748,36.998481],[22.21746,36.998281],[22.210541,36.99745],[22.20952,36.997078],[22.207166,36.995602],[22.202561,36.994953],[22.200619,36.993564],[22.199319,36.992924],[22.196497,36.992361],[22.194664,36.991288],[22.193888,36.989891],[22.192647,36.988853],[22.19275,36.988759],[22.188885,36.986815],[22.184632,36.98412],[22.183328,36.983696],[22.180811,36.983954],[22.175139,36.985609],[22.169213,36.985776],[22.16566,36.986986],[22.164554,36.986773],[22.164873,36.984435],[22.164888,36.978011],[22.166113,36.976304],[22.167545,36.97545],[22.169873,36.975248],[22.172193,36.974679],[22.174816,36.973717],[22.176202,36.972959],[22.177851,36.971539],[22.179101,36.969151],[22.176291,36.96874],[22.168075,36.966626],[22.166388,36.966425],[22.164477,36.966486],[22.161777,36.967352],[22.160629,36.967975],[22.159307,36.969131],[22.157997,36.969744],[22.155784,36.970425],[22.15316,36.970784],[22.151376,36.971384],[22.149395,36.972461],[22.149325,36.972448],[22.149233,36.972447],[22.149148,36.972471],[22.149017,36.972525],[22.148822,36.972529],[22.148601,36.972545],[22.148359,36.972585],[22.148156,36.972659],[22.148093,36.972724],[22.148046,36.972763],[22.147833,36.972812],[22.147452,36.972924],[22.147104,36.973019],[22.146906,36.97308],[22.14663,36.973295],[22.146469,36.97352],[22.146459,36.973667],[22.146499,36.973828],[22.146363,36.973988],[22.146256,36.974072],[22.14624,36.974086],[22.14615,36.974053],[22.1461,36.974096],[22.146238,36.974174],[22.14656,36.974918],[22.147352,36.975406],[22.148424,36.976795],[22.149283,36.978546],[22.149702,36.981239],[22.149369,36.983371],[22.14949,36.986057],[22.15024,36.988453],[22.151228,36.990383],[22.153181,36.992588],[22.153262,36.993315],[22.153328,36.993904],[22.154661,36.99472],[22.154642,37.006714],[22.152418,37.015739],[22.151029,37.017151],[22.149515,37.018146],[22.143629,37.0202],[22.14183,37.020828],[22.14065,37.021098],[22.130764,37.023357],[22.127977,37.023639],[22.123357,37.024612],[22.122206,37.024002],[22.122165,37.022686],[22.121198,37.021648],[22.121082,37.024109],[22.118898,37.024677],[22.116121,37.024082],[22.116142,37.022377],[22.116543,37.022033],[22.115823,37.021805],[22.115234,37.022201],[22.115333,37.024555],[22.110891,37.024738],[22.110599,37.025993],[22.109937,37.025902],[22.109821,37.0228],[22.114332,37.020611],[22.118809,37.020637],[22.118921,37.020069],[22.114025,37.019874],[22.109037,37.022484],[22.108759,37.023578],[22.10831,37.024021],[22.100538,37.024715],[22.088964,37.027096],[22.081697,37.02811],[22.07357,37.028507],[22.065424,37.028476],[22.050161,37.027252],[22.035839,37.024978],[22.027202,37.02296],[22.022482,37.022388],[22.020532,37.021789],[22.022719,37.023603],[22.027514,37.025881],[22.028531,37.027881],[22.030088,37.030114],[22.033495,37.032983],[22.036592,37.039135],[22.036316,37.041679],[22.033339,37.052214],[22.033038,37.054003],[22.021803,37.052213],[22.021095,37.052253],[22.020669,37.052977],[22.020689,37.056571],[22.019972,37.059193],[22.020195,37.059709],[22.021372,37.067667],[22.021468,37.071212],[22.020058,37.076014],[22.019802,37.078086],[22.018037,37.081278],[22.016613,37.080948],[22.014084,37.080901],[22.011757,37.081216],[22.009339,37.082049],[22.006121,37.081623],[22.000495,37.089207],[21.999505,37.093818],[21.999002,37.094439],[21.996234,37.094583],[21.992981,37.096137],[21.992228,37.096842],[21.991506,37.098645],[21.990196,37.099248],[21.989913,37.099899],[21.989901,37.100929],[21.991675,37.104386],[21.992336,37.106397],[21.992321,37.108423],[21.992463,37.108429],[21.992292,37.110842],[21.99281,37.113334],[21.992757,37.114411],[21.992403,37.115192],[21.990534,37.117347],[21.990187,37.118149],[21.989951,37.11934],[21.988858,37.120796],[21.988744,37.121864],[21.98922,37.12263],[21.990985,37.123837],[21.991488,37.125093],[21.991423,37.126317],[21.991391,37.127541],[21.989349,37.130121],[21.989042,37.13101],[21.989051,37.131961],[21.989538,37.132885],[21.991694,37.134499],[21.992322,37.135519],[21.992539,37.13689],[21.992346,37.137963],[21.991788,37.138807],[21.988973,37.140536],[21.985807,37.144468],[21.982786,37.147089],[21.984748,37.147933],[21.986612,37.148268],[21.992433,37.148352],[21.994833,37.148596],[21.996209,37.149178],[22.000223,37.152012],[22.001798,37.153649],[22.00204,37.154523],[22.001586,37.158852],[22.002264,37.161903],[22.002692,37.162721],[22.002964,37.163232],[22.003663,37.163607],[22.009548,37.164954],[22.014099,37.167222],[22.013436,37.17034],[22.013299,37.172561],[22.011519,37.177741],[22.011381,37.178711],[22.011612,37.179869],[22.012608,37.182018],[22.013072,37.183628],[22.013229,37.187656],[22.01256,37.191876],[22.012135,37.1929],[22.011284,37.194085],[22.011942,37.196106],[22.012147,37.19605],[22.014397,37.201848],[22.015344,37.203634],[22.016219,37.204641],[22.017323,37.204889],[22.018228,37.204779],[22.019431,37.204253],[22.023478,37.200987],[22.025439,37.198996],[22.026797,37.196701],[22.028158,37.19496],[22.028705,37.197155],[22.029561,37.198961],[22.032316,37.203502],[22.032758,37.205439],[22.033083,37.206518],[22.03268,37.209164],[22.032798,37.210116],[22.033243,37.210819],[22.035053,37.212248],[22.035601,37.214467],[22.042303,37.217078],[22.044792,37.211738],[22.046226,37.210413],[22.047072,37.210572],[22.048792,37.212768],[22.050085,37.213503],[22.051467,37.213536],[22.052899,37.212546],[22.053832,37.211325],[22.054942,37.208901],[22.056965,37.203217],[22.060639,37.197589],[22.073294,37.197692],[22.079176,37.197312],[22.081886,37.196401],[22.083859,37.195436],[22.087318,37.193066],[22.088547,37.192678],[22.089543,37.192746],[22.09063,37.19317],[22.094205,37.195622],[22.100178,37.19841],[22.098937,37.200869],[22.094413,37.207018],[22.091139,37.21032],[22.087652,37.216844],[22.086725,37.218108],[22.084163,37.220426],[22.080828,37.224371],[22.079535,37.226663],[22.078936,37.229406]]]]}},{"type":"Feature","properties":{"name":"Amaroussio","name_gr":"Αμαρουσιου","code":"4601","pop21":71830,"pop11":72333,"area":13.3},"geometry":{"type":"MultiPolygon","coordinates":[[[[23.808465,38.064341],[23.80967,38.06416],[23.809805,38.064258],[23.809801,38.064692],[23.809956,38.065467],[23.810819,38.065254],[23.811332,38.065119],[23.811664,38.065091],[23.811951,38.065022],[23.812041,38.065161],[23.81252,38.065264],[23.813036,38.065286],[23.813232,38.06531],[23.813415,38.065623],[23.813735,38.065552],[23.814031,38.065471],[23.814094,38.065438],[23.814344,38.065539],[23.814971,38.065809],[23.815088,38.065907],[23.815344,38.066103],[23.815402,38.066143],[23.815639,38.066332],[23.815775,38.066228],[23.815863,38.066168],[23.816129,38.065856],[23.816383,38.065718],[23.816494,38.065802],[23.816793,38.065736],[23.817312,38.065565],[23.818224,38.065063],[23.818913,38.064723],[23.818832,38.064606],[23.819683,38.064231],[23.820369,38.063917],[23.820807,38.063679],[23.82168,38.063151],[23.822374,38.062718],[23.822598,38.062547],[23.822658,38.062473],[23.822782,38.062435],[23.822966,38.062438],[23.823147,38.062388],[23.823353,38.062276],[23.823464,38.062155],[23.823543,38.062078],[23.824056,38.061829],[23.824682,38.061489],[23.825011,38.061325],[23.825269,38.061714],[23.825397,38.061977],[23.825551,38.062453],[23.827552,38.061989],[23.827335,38.06155],[23.827237,38.061349],[23.828233,38.060967],[23.828296,38.060995],[23.828678,38.061282],[23.828878,38.061209],[23.829122,38.061122],[23.83048,38.060629],[23.83042,38.060548],[23.83062,38.06041],[23.830852,38.060477],[23.830864,38.060277],[23.830877,38.059795],[23.830896,38.059492],[23.831081,38.057876],[23.831085,38.057237],[23.831087,38.056342],[23.831081,38.056089],[23.831016,38.055887],[23.830465,38.055462],[23.830053,38.055156],[23.828792,38.0548],[23.828362,38.054688],[23.827309,38.053585],[23.826584,38.05273],[23.827496,38.052515],[23.828748,38.052063],[23.829809,38.05167],[23.831174,38.05134],[23.831033,38.051182],[23.830663,38.050909],[23.829019,38.049589],[23.828303,38.048951],[23.829103,38.048387],[23.829023,38.047927],[23.82843,38.047516],[23.828965,38.047087],[23.829925,38.046366],[23.830448,38.046021],[23.8311,38.045624],[23.831332,38.045475],[23.831475,38.045379],[23.830999,38.044887],[23.830786,38.044686],[23.830012,38.04417],[23.829525,38.044414],[23.829015,38.044594],[23.829247,38.043697],[23.829456,38.042842],[23.829473,38.042791],[23.829279,38.042777],[23.828261,38.0426],[23.82794,38.042482],[23.826752,38.041961],[23.826169,38.041739],[23.825771,38.041509],[23.825555,38.041291],[23.824949,38.041075],[23.824615,38.040878],[23.824485,38.040581],[23.824471,38.040441],[23.824436,38.040266],[23.824156,38.03974],[23.82394,38.039299],[23.823842,38.038899],[23.823832,38.038544],[23.823768,38.038348],[23.823542,38.038207],[23.823164,38.038012],[23.823089,38.037867],[23.823085,38.037689],[23.823117,38.03752],[23.823228,38.037209],[23.823186,38.036965],[23.822969,38.036701],[23.822808,38.036562],[23.822799,38.0363],[23.822789,38.035553],[23.822789,38.035322],[23.822739,38.035199],[23.822544,38.03508],[23.821791,38.034916],[23.821442,38.03474],[23.821163,38.034571],[23.821531,38.034212],[23.820998,38.033917],[23.821215,38.033755],[23.821437,38.033423],[23.821443,38.033194],[23.821072,38.032943],[23.82085,38.033085],[23.820628,38.03321],[23.82027,38.033515],[23.820142,38.033527],[23.82003,38.033503],[23.819573,38.03329],[23.819716,38.033209],[23.81982,38.033139],[23.819601,38.033039],[23.819482,38.03308],[23.819374,38.033156],[23.819298,38.033183],[23.819177,38.033194],[23.819096,38.033171],[23.818694,38.032721],[23.818547,38.032591],[23.818394,38.032509],[23.818247,38.032445],[23.8177,38.032305],[23.81718,38.032046],[23.8169,38.032006],[23.816651,38.032045],[23.816384,38.032099],[23.816131,38.03198],[23.815838,38.031894],[23.815449,38.031882],[23.814806,38.031878],[23.8144,38.031759],[23.81403,38.031379],[23.813936,38.031057],[23.81385,38.030652],[23.813808,38.030653],[23.813555,38.030747],[23.812738,38.031064],[23.81194,38.031332],[23.810489,38.031933],[23.81015,38.031438],[23.810062,38.031267],[23.809918,38.031329],[23.808958,38.031743],[23.808816,38.031556],[23.808663,38.031291],[23.807999,38.03154],[23.807445,38.031777],[23.807147,38.031326],[23.806918,38.031007],[23.804257,38.032169],[23.803767,38.032355],[23.803221,38.031577],[23.802864,38.031098],[23.802568,38.030698],[23.802326,38.030686],[23.802269,38.031037],[23.802196,38.031498],[23.80194,38.031553],[23.800896,38.031997],[23.799683,38.032392],[23.799579,38.032302],[23.799219,38.031833],[23.798264,38.032186],[23.79784,38.03163],[23.797347,38.031901],[23.797454,38.032231],[23.797562,38.032488],[23.796102,38.033149],[23.795673,38.03335],[23.79567,38.033608],[23.795694,38.033761],[23.795649,38.033783],[23.795557,38.033655],[23.795067,38.033102],[23.794472,38.032361],[23.794139,38.031963],[23.794189,38.031892],[23.793909,38.031587],[23.793666,38.031315],[23.792926,38.030548],[23.792795,38.030505],[23.792471,38.030118],[23.791917,38.029369],[23.791533,38.028925],[23.790591,38.027818],[23.790141,38.027302],[23.789771,38.026623],[23.789542,38.025946],[23.789474,38.02529],[23.789331,38.025305],[23.789308,38.025015],[23.789268,38.024626],[23.788945,38.024618],[23.788568,38.024642],[23.788291,38.024766],[23.786882,38.025623],[23.784713,38.026911],[23.78263,38.028166],[23.782077,38.028491],[23.781841,38.028831],[23.781486,38.029307],[23.781326,38.02976],[23.781045,38.031897],[23.780924,38.033234],[23.7809,38.033351],[23.780807,38.034349],[23.780723,38.034808],[23.78063,38.03572],[23.780517,38.035815],[23.780501,38.03591],[23.780516,38.036054],[23.780606,38.036149],[23.780704,38.036197],[23.78099,38.036186],[23.780619,38.0369],[23.780323,38.037567],[23.779808,38.03824],[23.779204,38.03871],[23.77795,38.039566],[23.777108,38.040147],[23.776511,38.040645],[23.77765,38.041563],[23.778492,38.04228],[23.779628,38.043224],[23.781123,38.044711],[23.780784,38.044877],[23.779841,38.045066],[23.778914,38.045123],[23.779985,38.046486],[23.780026,38.047013],[23.780074,38.047347],[23.780297,38.047305],[23.780417,38.0473],[23.780526,38.047477],[23.780824,38.047552],[23.781351,38.047621],[23.781412,38.047645],[23.78152,38.04776],[23.78156,38.04794],[23.781657,38.048137],[23.781918,38.048064],[23.782941,38.047857],[23.782994,38.048439],[23.783199,38.050357],[23.784074,38.049742],[23.785223,38.049159],[23.785462,38.049498],[23.785589,38.049679],[23.785969,38.050249],[23.786671,38.051117],[23.787178,38.050951],[23.787552,38.050885],[23.788131,38.050819],[23.789054,38.050735],[23.790086,38.050431],[23.791148,38.050185],[23.792361,38.050063],[23.793073,38.050017],[23.793113,38.050723],[23.793311,38.051029],[23.793486,38.051224],[23.793641,38.051601],[23.793646,38.05204],[23.79367,38.052322],[23.794059,38.05341],[23.794136,38.053729],[23.794266,38.054546],[23.794342,38.055456],[23.794384,38.055814],[23.794815,38.056673],[23.795047,38.057113],[23.795109,38.057213],[23.795936,38.056995],[23.796608,38.058517],[23.796771,38.05846],[23.796964,38.058313],[23.797156,38.058785],[23.797557,38.059778],[23.797944,38.05964],[23.797688,38.060374],[23.797827,38.06046],[23.797875,38.060594],[23.797887,38.060704],[23.798344,38.060967],[23.798749,38.061176],[23.798965,38.061283],[23.79906,38.061731],[23.80008,38.061604],[23.80022,38.062394],[23.800585,38.064419],[23.801152,38.064243],[23.801255,38.064239],[23.801206,38.064515],[23.801132,38.064973],[23.801168,38.065326],[23.80122,38.066061],[23.800767,38.066155],[23.80132,38.067143],[23.80195,38.06698],[23.802065,38.066935],[23.802019,38.06642],[23.803256,38.066145],[23.803624,38.066087],[23.804107,38.066018],[23.804003,38.065389],[23.803976,38.065169],[23.804266,38.065113],[23.805455,38.064964],[23.805703,38.06495],[23.80683,38.064718],[23.808465,38.064341]]]]}},{"type":"Feature","properties":{"name":"Aegaleo","name_gr":"Αιγαλεω","code":"4704","pop21":65831,"pop11":69946,"area":6.7},"geometry":{"type":"MultiPolygon","coordinates":[[[[23.670726,38.008553],[23.671444,38.008329],[23.671579,38.008525],[23.67458,38.006531],[23.678144,38.004165],[23.680871,38.002879],[23.682723,38.002263],[23.684255,38.001698],[23.684926,38.001434],[23.685217,38.001387],[23.685522,38.001332],[23.685594,38.001233],[23.685738,38.001103],[23.688025,38.000059],[23.689844,37.999176],[23.69131,37.99819],[23.693146,37.996949],[23.694561,37.996062],[23.694584,37.996036],[23.694171,37.995704],[23.693038,37.994703],[23.693974,37.994252],[23.694963,37.993587],[23.695683,37.993322],[23.696323,37.993198],[23.697423,37.993063],[23.697499,37.993007],[23.69706,37.992442],[23.696693,37.991947],[23.696274,37.991361],[23.695986,37.990904],[23.695366,37.989705],[23.694802,37.988374],[23.694336,37.987365],[23.694176,37.986905],[23.69403,37.986568],[23.693847,37.986279],[23.6935,37.985538],[23.693196,37.985132],[23.692758,37.984666],[23.69254,37.984424],[23.692071,37.983931],[23.691881,37.983786],[23.691429,37.983383],[23.691112,37.983047],[23.690777,37.982627],[23.690648,37.982399],[23.690383,37.981954],[23.689965,37.981496],[23.689806,37.981205],[23.689609,37.980954],[23.688907,37.980244],[23.688461,37.979799],[23.688177,37.979542],[23.686997,37.978459],[23.686537,37.977912],[23.685994,37.977244],[23.68563,37.976864],[23.685442,37.976573],[23.685303,37.976386],[23.678265,37.976487],[23.671525,37.976137],[23.668329,37.976499],[23.668713,37.976719],[23.668929,37.976892],[23.66909,37.977355],[23.669148,37.977746],[23.669181,37.97796],[23.669434,37.978452],[23.669889,37.979097],[23.670063,37.979369],[23.670479,37.979957],[23.670775,37.98043],[23.670386,37.980608],[23.669948,37.980738],[23.669451,37.980775],[23.669183,37.980798],[23.668935,37.980986],[23.66836,37.981439],[23.667252,37.982247],[23.666935,37.982491],[23.666835,37.982636],[23.666749,37.982906],[23.666684,37.983082],[23.666476,37.983408],[23.666297,37.983702],[23.666152,37.984093],[23.666069,37.984393],[23.665995,37.984429],[23.666035,37.984516],[23.666062,37.984598],[23.666119,37.984746],[23.666017,37.984758],[23.665987,37.98476],[23.665998,37.984824],[23.666054,37.984909],[23.666164,37.985076],[23.666072,37.985125],[23.66605,37.985156],[23.666308,37.985521],[23.666587,37.98542],[23.666608,37.985763],[23.666447,37.986317],[23.666107,37.987529],[23.666002,37.989076],[23.665965,37.989728],[23.665547,37.989803],[23.665505,37.989969],[23.665952,37.990095],[23.666645,37.99034],[23.666386,37.990762],[23.665768,37.99082],[23.665549,37.991061],[23.665525,37.991205],[23.665322,37.992335],[23.665099,37.992543],[23.665074,37.992647],[23.66541,37.992693],[23.665322,37.993122],[23.664998,37.993082],[23.664971,37.99345],[23.66553,37.993429],[23.665736,37.993749],[23.666061,37.994254],[23.666694,37.995159],[23.667401,37.996264],[23.667924,37.997082],[23.667947,37.997119],[23.667043,37.997836],[23.667086,37.997865],[23.667562,37.998445],[23.667839,37.998794],[23.667887,37.999734],[23.667918,38.000527],[23.667984,38.001668],[23.668018,38.002446],[23.667817,38.002537],[23.667284,38.00271],[23.66737,38.003747],[23.667745,38.005666],[23.668764,38.00544],[23.668828,38.005607],[23.668268,38.005795],[23.668639,38.006687],[23.669268,38.008595],[23.670177,38.008569],[23.670726,38.008553]]]]}},{"type":"Feature","properties":{"name":"Oreokastro","name_gr":"Ωραιοκαστρου","code":"0714","pop21":40004,"pop11":38317,"area":217.9},"geometry":{"type":"MultiPolygon","coordinates":[[[[22.964852,40.823575],[22.966924,40.822988],[22.972578,40.822177],[22.979023,40.820558],[22.981476,40.820495],[22.984223,40.820837],[22.989508,40.820997],[22.996819,40.82248],[22.998077,40.822056],[22.998944,40.820689],[22.999294,40.820481],[23.001522,40.821943],[23.003498,40.822535],[23.003198,40.822091],[23.0031,40.820265],[23.004302,40.812526],[23.005519,40.807472],[23.006252,40.805215],[23.00714,40.803327],[23.011786,40.796962],[23.012111,40.795985],[23.011358,40.794702],[23.009586,40.792907],[23.009082,40.791468],[23.0102,40.790482],[23.015727,40.787438],[23.020053,40.786359],[23.021555,40.785601],[23.026653,40.783667],[23.028817,40.782034],[23.028336,40.779764],[23.025068,40.773891],[23.022606,40.767668],[23.020135,40.762819],[23.019957,40.761718],[23.018961,40.75926],[23.018378,40.757135],[23.017196,40.751768],[23.016905,40.749435],[23.017534,40.748608],[23.017702,40.748252],[23.018574,40.746395],[23.01909,40.744151],[23.01529,40.742319],[23.008189,40.73826],[23.001291,40.735973],[23.000784,40.736288],[23.000053,40.736548],[22.998736,40.737433],[22.998307,40.737634],[22.998135,40.737409],[22.997605,40.736827],[22.997017,40.736355],[22.995379,40.735249],[22.993858,40.734273],[22.99283,40.733435],[22.992354,40.733006],[22.991767,40.732501],[22.991421,40.73215],[22.991267,40.731943],[22.990928,40.732031],[22.990526,40.732075],[22.990126,40.732033],[22.989802,40.731873],[22.989517,40.731699],[22.989462,40.731584],[22.989508,40.731432],[22.989605,40.731214],[22.98972,40.730652],[22.989667,40.729983],[22.989617,40.729801],[22.989528,40.729507],[22.988851,40.728879],[22.988264,40.728516],[22.986518,40.72796],[22.979824,40.725058],[22.978243,40.72383],[22.975616,40.72033],[22.973689,40.716986],[22.970082,40.713224],[22.969526,40.713307],[22.964823,40.712441],[22.961272,40.711542],[22.961266,40.711277],[22.960806,40.710955],[22.960674,40.710982],[22.960397,40.711012],[22.959951,40.71099],[22.959665,40.71093],[22.959455,40.71081],[22.959326,40.710659],[22.959067,40.710421],[22.958672,40.710138],[22.9582,40.709991],[22.957249,40.709796],[22.956822,40.710025],[22.954821,40.710929],[22.953446,40.711399],[22.953326,40.711598],[22.952909,40.712099],[22.952471,40.712445],[22.951791,40.712696],[22.95155,40.712802],[22.95095,40.712968],[22.950403,40.713084],[22.950225,40.713104],[22.950127,40.71305],[22.950082,40.71291],[22.950007,40.712612],[22.949888,40.712397],[22.949737,40.712106],[22.949634,40.712091],[22.949323,40.712148],[22.949073,40.712239],[22.948908,40.712288],[22.948828,40.712298],[22.94873,40.712265],[22.948562,40.712152],[22.948333,40.712064],[22.948019,40.712033],[22.947617,40.71201],[22.947319,40.711998],[22.947099,40.711989],[22.946864,40.711997],[22.946675,40.712042],[22.946444,40.712101],[22.946151,40.712212],[22.945895,40.712326],[22.945629,40.712494],[22.945394,40.712697],[22.944209,40.713529],[22.943874,40.713712],[22.943313,40.713926],[22.942564,40.714187],[22.941945,40.714462],[22.941385,40.714648],[22.940944,40.714796],[22.940704,40.714932],[22.940186,40.71519],[22.940034,40.715227],[22.939913,40.715296],[22.939708,40.714739],[22.940748,40.713898],[22.940787,40.713828],[22.940801,40.713688],[22.9408,40.713476],[22.940642,40.713203],[22.940103,40.71271],[22.940586,40.712421],[22.940993,40.712004],[22.940981,40.711754],[22.940572,40.711142],[22.940627,40.710875],[22.940852,40.710782],[22.940965,40.710735],[22.94113,40.710632],[22.941257,40.71049],[22.941298,40.710329],[22.941301,40.710128],[22.941168,40.709841],[22.941084,40.709564],[22.941087,40.709383],[22.941391,40.709176],[22.941823,40.708808],[22.941887,40.708481],[22.941704,40.708373],[22.941372,40.708181],[22.941353,40.707986],[22.941541,40.707563],[22.941715,40.70725],[22.941578,40.707196],[22.940989,40.707105],[22.940585,40.707044],[22.940514,40.707043],[22.940482,40.707071],[22.940387,40.707156],[22.940318,40.707136],[22.940134,40.706901],[22.939708,40.706483],[22.93915,40.706125],[22.938801,40.705654],[22.938708,40.705549],[22.938699,40.705377],[22.938913,40.704874],[22.939075,40.704551],[22.93911,40.704313],[22.939032,40.704126],[22.938833,40.70361],[22.938685,40.703456],[22.939184,40.701988],[22.939288,40.701538],[22.939472,40.700801],[22.939372,40.700681],[22.939203,40.700459],[22.93874,40.70055],[22.938173,40.700735],[22.937929,40.700834],[22.936483,40.701143],[22.935713,40.70132],[22.935264,40.701471],[22.934918,40.701557],[22.933868,40.701643],[22.932353,40.701891],[22.930266,40.702149],[22.929889,40.70218],[22.929957,40.702073],[22.930333,40.701341],[22.930604,40.70053],[22.931091,40.699156],[22.931174,40.698756],[22.93125,40.698379],[22.931461,40.697494],[22.931721,40.696915],[22.932411,40.695878],[22.933041,40.695017],[22.933825,40.693766],[22.934392,40.69277],[22.934667,40.692067],[22.934296,40.692012],[22.931164,40.691522],[22.928077,40.691047],[22.92766,40.69095],[22.927355,40.690361],[22.927385,40.689987],[22.926824,40.690006],[22.923733,40.690055],[22.920798,40.690099],[22.91806,40.690202],[22.917114,40.690236],[22.915798,40.690293],[22.91369,40.690335],[22.913282,40.690383],[22.912908,40.690439],[22.9108,40.690484],[22.908495,40.690548],[22.907361,40.690693],[22.906626,40.690783],[22.906146,40.69083],[22.905968,40.690796],[22.905257,40.690869],[22.904606,40.690964],[22.904051,40.691504],[22.903689,40.691904],[22.903381,40.692084],[22.903092,40.69231],[22.903008,40.692392],[22.902794,40.692831],[22.902565,40.693064],[22.902238,40.693518],[22.901836,40.693934],[22.90158,40.694201],[22.901262,40.694384],[22.901076,40.694553],[22.900706,40.694798],[22.900402,40.694963],[22.900003,40.695228],[22.899868,40.695378],[22.899772,40.695528],[22.899755,40.695742],[22.895531,40.695941],[22.891937,40.6965],[22.891669,40.696536],[22.889123,40.696875],[22.888893,40.69729],[22.888468,40.697949],[22.887919,40.698568],[22.887452,40.699182],[22.886966,40.69998],[22.886452,40.700273],[22.884221,40.700981],[22.883121,40.701302],[22.882368,40.701438],[22.878884,40.701892],[22.87805,40.702032],[22.87785,40.701984],[22.874434,40.701136],[22.873279,40.70111],[22.868978,40.701011],[22.869157,40.700405],[22.868468,40.700034],[22.866648,40.699337],[22.866255,40.69924],[22.866038,40.699288],[22.86493,40.699792],[22.864012,40.699693],[22.863098,40.699729],[22.862365,40.699756],[22.862137,40.699892],[22.861722,40.699988],[22.860268,40.69932],[22.860227,40.699153],[22.860556,40.698575],[22.860848,40.698372],[22.861075,40.698265],[22.861702,40.697489],[22.862084,40.696935],[22.860134,40.696992],[22.856064,40.696928],[22.851837,40.69615],[22.851751,40.696134],[22.851132,40.69602],[22.850279,40.696017],[22.84929,40.695756],[22.848167,40.697753],[22.847014,40.697412],[22.846499,40.697224],[22.846004,40.697634],[22.84591,40.697601],[22.845352,40.698114],[22.844023,40.69809],[22.843972,40.6983],[22.843174,40.698253],[22.842799,40.69822],[22.842754,40.698141],[22.842821,40.698028],[22.842771,40.697977],[22.841824,40.698679],[22.841102,40.699127],[22.840353,40.699496],[22.839246,40.699899],[22.838559,40.70005],[22.838241,40.700126],[22.837473,40.700148],[22.837023,40.701282],[22.836838,40.702919],[22.836594,40.705171],[22.836512,40.70573],[22.834912,40.705681],[22.832569,40.705668],[22.83233,40.705892],[22.831912,40.706079],[22.831669,40.7061],[22.83141,40.70611],[22.831088,40.70616],[22.830805,40.706252],[22.830506,40.706321],[22.830372,40.706337],[22.830325,40.706385],[22.830344,40.706641],[22.830337,40.707004],[22.830256,40.707182],[22.828962,40.707109],[22.827807,40.707062],[22.82689,40.707118],[22.826308,40.707244],[22.82618,40.708762],[22.824246,40.708766],[22.822516,40.708742],[22.822303,40.70883],[22.822511,40.709016],[22.823051,40.709463],[22.824139,40.709945],[22.825581,40.710335],[22.826355,40.710408],[22.826816,40.710449],[22.827456,40.710541],[22.829427,40.710859],[22.828703,40.712453],[22.82843,40.712959],[22.828278,40.713152],[22.828195,40.713227],[22.82734,40.713134],[22.826095,40.713037],[22.824853,40.712915],[22.824764,40.714759],[22.824706,40.716269],[22.824633,40.717222],[22.824498,40.718527],[22.824535,40.719614],[22.824437,40.720542],[22.82434,40.721094],[22.823869,40.722553],[22.823975,40.723322],[22.824318,40.723378],[22.825888,40.723899],[22.827964,40.724516],[22.829036,40.724837],[22.8312,40.725646],[22.831314,40.727173],[22.830881,40.727872],[22.830217,40.728214],[22.828554,40.728261],[22.824857,40.727413],[22.824683,40.727411],[22.824914,40.728573],[22.82547,40.729913],[22.825265,40.730877],[22.819571,40.729508],[22.818641,40.731584],[22.816665,40.73614],[22.814583,40.736059],[22.809766,40.735556],[22.808605,40.735851],[22.804874,40.742946],[22.802413,40.745627],[22.800136,40.74858],[22.80026,40.748637],[22.79594,40.753138],[22.79319,40.757633],[22.790145,40.761785],[22.789567,40.762979],[22.793455,40.763757],[22.796006,40.763949],[22.798363,40.763754],[22.801375,40.762884],[22.802595,40.762817],[22.803709,40.76325],[22.804755,40.764489],[22.805555,40.764926],[22.81104,40.765904],[22.812568,40.7665],[22.813445,40.767289],[22.813588,40.768341],[22.810597,40.776581],[22.810001,40.78101],[22.810235,40.782644],[22.810666,40.783047],[22.81137,40.783252],[22.813602,40.783048],[22.814064,40.783278],[22.8143,40.783674],[22.814106,40.784814],[22.811763,40.790184],[22.811861,40.791746],[22.812173,40.792476],[22.816598,40.798974],[22.817501,40.800909],[22.81768,40.802223],[22.817218,40.803868],[22.815512,40.806446],[22.812093,40.810822],[22.808828,40.81438],[22.806281,40.818435],[22.804041,40.820996],[22.803151,40.82247],[22.803585,40.823231],[22.814841,40.823266],[22.817849,40.823476],[22.819604,40.82329],[22.822562,40.822194],[22.827208,40.821265],[22.834141,40.818425],[22.835794,40.817516],[22.839895,40.8146],[22.844944,40.81208],[22.846884,40.811321],[22.849784,40.810623],[22.854088,40.808534],[22.854912,40.808411],[22.855582,40.808567],[22.856091,40.809338],[22.857857,40.810678],[22.859987,40.811702],[22.860254,40.811993],[22.860334,40.813274],[22.86096,40.814389],[22.863989,40.816522],[22.864994,40.817671],[22.864649,40.818981],[22.863697,40.819885],[22.862049,40.822935],[22.870005,40.820763],[22.872404,40.820385],[22.874343,40.820385],[22.878461,40.821358],[22.881224,40.821598],[22.884254,40.821371],[22.889868,40.820368],[22.891396,40.820401],[22.893004,40.821105],[22.89443,40.822422],[22.895811,40.823002],[22.897698,40.823175],[22.899433,40.822835],[22.901145,40.821992],[22.903191,40.82061],[22.904709,40.820119],[22.908272,40.820253],[22.910116,40.820923],[22.912588,40.82088],[22.914063,40.820349],[22.920632,40.815986],[22.922332,40.815666],[22.925529,40.816448],[22.928046,40.816559],[22.93227,40.815595],[22.936604,40.813667],[22.938532,40.813472],[22.939611,40.814164],[22.939649,40.815126],[22.938808,40.81638],[22.93312,40.820924],[22.9323,40.821919],[22.932171,40.822457],[22.93228,40.823166],[22.932572,40.823532],[22.934844,40.82361],[22.94427,40.82291],[22.952181,40.823213],[22.956676,40.823935],[22.958404,40.824595],[22.961165,40.826237],[22.961832,40.827431],[22.962786,40.826304],[22.964159,40.823959],[22.964852,40.823575]]],[[[22.802073,40.705914],[22.806977,40.705625],[22.80708,40.705628],[22.807236,40.70458],[22.808843,40.703533],[22.809315,40.703247],[22.810153,40.702981],[22.811043,40.702725],[22.810998,40.702572],[22.811549,40.702391],[22.812439,40.702157],[22.812467,40.702036],[22.812914,40.701908],[22.813796,40.701091],[22.814917,40.70009],[22.81674,40.698428],[22.818474,40.696849],[22.819307,40.696226],[22.819512,40.696174],[22.821113,40.695952],[22.822276,40.695672],[22.823355,40.695308],[22.822693,40.693222],[22.822598,40.692692],[22.822387,40.691309],[22.822999,40.688306],[22.823106,40.687807],[22.822377,40.688036],[22.820512,40.688543],[22.819617,40.68868],[22.818832,40.686336],[22.817936,40.684037],[22.817498,40.682694],[22.817093,40.681667],[22.816132,40.681836],[22.813403,40.682408],[22.811748,40.682742],[22.812396,40.684336],[22.812681,40.685243],[22.813071,40.686255],[22.813465,40.687467],[22.810033,40.688175],[22.807005,40.688859],[22.807542,40.69038],[22.807676,40.690739],[22.806046,40.691009],[22.805785,40.690941],[22.801544,40.691698],[22.801694,40.692229],[22.799241,40.692797],[22.80021,40.695331],[22.800657,40.696623],[22.792352,40.697756],[22.791721,40.698703],[22.790961,40.699868],[22.790795,40.70218],[22.790769,40.702674],[22.789987,40.703497],[22.789249,40.704234],[22.78889,40.70507],[22.788792,40.705498],[22.78874,40.705846],[22.794658,40.70592],[22.800138,40.705977],[22.802073,40.705914]]],[[[22.853262,40.690911],[22.853007,40.6909],[22.852807,40.691148],[22.85256,40.69154],[22.852253,40.692159],[22.851922,40.692777],[22.851835,40.69303],[22.851788,40.693136],[22.852032,40.693844],[22.85287,40.694455],[22.853122,40.694642],[22.853459,40.694845],[22.853482,40.694858],[22.8542,40.694348],[22.854895,40.693835],[22.855456,40.69344],[22.855698,40.693196],[22.856541,40.692526],[22.857074,40.692096],[22.85603,40.691806],[22.854644,40.691386],[22.853262,40.690911]]]]}}]}