{"type": "FeatureCollection", "features": [{"type": "Feature", "properties": {"id": "001", "elev": 123}, "geometry": {"type": "Point", "coordinates": [20.0125, 39.97617]}}, {"type": "Feature", "properties": {"id": "002", "elev": 211}, "geometry": {"type": "Point", "coordinates": [20.039, 39.9845]}}, {"type": "Feature", "properties": {"id": "003", "elev": 609}, "geometry": {"type": "Point", "coordinates": [20.12817, 39.96417]}}, {"type": "Feature", "properties": {"id": "004", "elev": 662}, "geometry": {"type": "Point", "coordinates": [20.0695, 40.0025]}}, {"type": "Feature", "properties": {"id": "005", "elev": 421}, "geometry": {"type": "Point", "coordinates": [20.11867, 39.95567]}}, {"type": "Feature", "properties": {"id": "006", "elev": 436}, "geometry": {"type": "Point", "coordinates": [20.13367, 39.949]}}, {"type": "Feature", "properties": {"id": "007", "elev": 106}, "geometry": {"type": "Point", "coordinates": [20.02217, 39.955]}}, {"type": "Feature", "properties": {"id": "008", "elev": 168}, "geometry": {"type": "Point", "coordinates": [20.04167, 39.96967]}}, {"type": "Feature", "properties": {"id": "009", "elev": 379}, "geometry": {"type": "Point", "coordinates": [20.06617, 39.981]}}, {"type": "Feature", "properties": {"id": "010", "elev": 492}, "geometry": {"type": "Point", "coordinates": [20.07667, 39.99117]}}, {"type": "Feature", "properties": {"id": "011", "elev": 1111}, "geometry": {"type": "Point", "coordinates": [20.097, 40.00367]}}, {"type": "Feature", "properties": {"id": "013", "elev": 105}, "geometry": {"type": "Point", "coordinates": [20.04267, 39.95167]}}, {"type": "Feature", "properties": {"id": "014", "elev": 224}, "geometry": {"type": "Point", "coordinates": [20.06317, 39.96017]}}, {"type": "Feature", "properties": {"id": "015", "elev": 489}, "geometry": {"type": "Point", "coordinates": [20.07717, 39.97417]}}, {"type": "Feature", "properties": {"id": "016", "elev": 725}, "geometry": {"type": "Point", "coordinates": [20.0985, 39.98517]}}, {"type": "Feature", "properties": {"id": "017", "elev": 893}, "geometry": {"type": "Point", "coordinates": [20.1065, 39.9955]}}, {"type": "Feature", "properties": {"id": "018", "elev": 1406}, "geometry": {"type": "Point", "coordinates": [20.11467, 40.006]}}, {"type": "Feature", "properties": {"id": "019", "elev": 90}, "geometry": {"type": "Point", "coordinates": [20.04417, 39.93367]}}, {"type": "Feature", "properties": {"id": "020", "elev": 123}, "geometry": {"type": "Point", "coordinates": [20.06617, 39.9425]}}, {"type": "Feature", "properties": {"id": "021", "elev": 227}, "geometry": {"type": "Point", "coordinates": [20.076, 39.957]}}, {"type": "Feature", "properties": {"id": "022", "elev": 425}, "geometry": {"type": "Point", "coordinates": [20.09867, 39.96917]}}, {"type": "Feature", "properties": {"id": "023", "elev": 483}, "geometry": {"type": "Point", "coordinates": [20.1165, 39.94667]}}, {"type": "Feature", "properties": {"id": "024", "elev": 1459}, "geometry": {"type": "Point", "coordinates": [20.12617, 40.00067]}}, {"type": "Feature", "properties": {"id": "025", "elev": 92}, "geometry": {"type": "Point", "coordinates": [20.06767, 39.92867]}}, {"type": "Feature", "properties": {"id": "026", "elev": 211}, "geometry": {"type": "Point", "coordinates": [20.0835, 39.94317]}}, {"type": "Feature", "properties": {"id": "027", "elev": 248}, "geometry": {"type": "Point", "coordinates": [20.0995, 39.954]}}, {"type": "Feature", "properties": {"id": "028", "elev": 364}, "geometry": {"type": "Point", "coordinates": [20.10917, 39.95917]}}, {"type": "Feature", "properties": {"id": "029", "elev": 486}, "geometry": {"type": "Point", "coordinates": [20.11867, 39.9625]}}, {"type": "Feature", "properties": {"id": "030", "elev": 449}, "geometry": {"type": "Point", "coordinates": [20.17167, 39.92967]}}, {"type": "Feature", "properties": {"id": "031", "elev": 287}, "geometry": {"type": "Point", "coordinates": [20.09417, 39.94267]}}, {"type": "Feature", "properties": {"id": "032", "elev": 111}, "geometry": {"type": "Point", "coordinates": [20.0635, 39.91617]}}, {"type": "Feature", "properties": {"id": "033", "elev": 338}, "geometry": {"type": "Point", "coordinates": [20.09567, 39.929]}}, {"type": "Feature", "properties": {"id": "034", "elev": 265}, "geometry": {"type": "Point", "coordinates": [20.11167, 39.93917]}}, {"type": "Feature", "properties": {"id": "038", "elev": 512}, "geometry": {"type": "Point", "coordinates": [20.19267, 39.99317]}}, {"type": "Feature", "properties": {"id": "039", "elev": 72}, "geometry": {"type": "Point", "coordinates": [20.08717, 39.9125]}}, {"type": "Feature", "properties": {"id": "040", "elev": 311}, "geometry": {"type": "Point", "coordinates": [20.10917, 39.9225]}}, {"type": "Feature", "properties": {"id": "041", "elev": 472}, "geometry": {"type": "Point", "coordinates": [20.1285, 39.937]}}, {"type": "Feature", "properties": {"id": "042", "elev": 371}, "geometry": {"type": "Point", "coordinates": [20.145, 39.94517]}}, {"type": "Feature", "properties": {"id": "043", "elev": 378}, "geometry": {"type": "Point", "coordinates": [20.16667, 39.9515]}}, {"type": "Feature", "properties": {"id": "045", "elev": 101}, "geometry": {"type": "Point", "coordinates": [20.0985, 39.89167]}}, {"type": "Feature", "properties": {"id": "046", "elev": 95}, "geometry": {"type": "Point", "coordinates": [20.11117, 39.904]}}, {"type": "Feature", "properties": {"id": "047", "elev": 105}, "geometry": {"type": "Point", "coordinates": [20.127, 39.914]}}, {"type": "Feature", "properties": {"id": "048", "elev": 198}, "geometry": {"type": "Point", "coordinates": [20.142, 39.92067]}}, {"type": "Feature", "properties": {"id": "049", "elev": 407}, "geometry": {"type": "Point", "coordinates": [20.16317, 39.9375]}}, {"type": "Feature", "properties": {"id": "050", "elev": 482}, "geometry": {"type": "Point", "coordinates": [20.18017, 39.94267]}}, {"type": "Feature", "properties": {"id": "053", "elev": 333}, "geometry": {"type": "Point", "coordinates": [20.14767, 39.906]}}, {"type": "Feature", "properties": {"id": "054", "elev": 108}, "geometry": {"type": "Point", "coordinates": [20.16567, 39.92067]}}, {"type": "Feature", "properties": {"id": "055", "elev": 350}, "geometry": {"type": "Point", "coordinates": [19.1825, 39.93367]}}, {"type": "Feature", "properties": {"id": "056", "elev": 597}, "geometry": {"type": "Point", "coordinates": [20.22317, 39.9395]}}, {"type": "Feature", "properties": {"id": "057", "elev": 70}, "geometry": {"type": "Point", "coordinates": [19.1115, 39.8735]}}, {"type": "Feature", "properties": {"id": "058", "elev": 209}, "geometry": {"type": "Point", "coordinates": [20.13, 39.88567]}}, {"type": "Feature", "properties": {"id": "060", "elev": 301}, "geometry": {"type": "Point", "coordinates": [19.177, 39.91217]}}, {"type": "Feature", "properties": {"id": "061", "elev": 196}, "geometry": {"type": "Point", "coordinates": [20.18617, 39.9165]}}, {"type": "Feature", "properties": {"id": "062", "elev": 441}, "geometry": {"type": "Point", "coordinates": [20.204, 39.92267]}}, {"type": "Feature", "properties": {"id": "063", "elev": 160}, "geometry": {"type": "Point", "coordinates": [20.1345, 39.8705]}}, {"type": "Feature", "properties": {"id": "064", "elev": 335}, "geometry": {"type": "Point", "coordinates": [20.15667, 39.87467]}}, {"type": "Feature", "properties": {"id": "066", "elev": 223}, "geometry": {"type": "Point", "coordinates": [20.19117, 39.9055]}}, {"type": "Feature", "properties": {"id": "067", "elev": 371}, "geometry": {"type": "Point", "coordinates": [20.20167, 39.91117]}}, {"type": "Feature", "properties": {"id": "068", "elev": 333}, "geometry": {"type": "Point", "coordinates": [20.87617, 40.07817]}}, {"type": "Feature", "properties": {"id": "069", "elev": 487}, "geometry": {"type": "Point", "coordinates": [20.01967, 40.15767]}}, {"type": "Feature", "properties": {"id": "070", "elev": 328}, "geometry": {"type": "Point", "coordinates": [20.94367, 40.02817]}}, {"type": "Feature", "properties": {"id": "071", "elev": 394}, "geometry": {"type": "Point", "coordinates": [20.01217, 40.11317]}}, {"type": "Feature", "properties": {"id": "072", "elev": 167}, "geometry": {"type": "Point", "coordinates": [20.97417, 39.999]}}, {"type": "Feature", "properties": {"id": "074", "elev": 302}, "geometry": {"type": "Point", "coordinates": [20.12317, 40.08967]}}, {"type": "Feature", "properties": {"id": "075", "elev": 63}, "geometry": {"type": "Point", "coordinates": [20.00067, 39.92167]}}, {"type": "Feature", "properties": {"id": "076", "elev": 256}, "geometry": {"type": "Point", "coordinates": [20.19517, 40.01167]}}, {"type": "Feature", "properties": {"id": "077", "elev": 101}, "geometry": {"type": "Point", "coordinates": [20.0325, 39.87167]}}, {"type": "Feature", "properties": {"id": "078", "elev": 398}, "geometry": {"type": "Point", "coordinates": [20.15767, 39.8435]}}, {"type": "Feature", "properties": {"id": "079", "elev": 647}, "geometry": {"type": "Point", "coordinates": [20.23817, 39.88317]}}, {"type": "Feature", "properties": {"id": "080", "elev": 270}, "geometry": {"type": "Point", "coordinates": [20.26317, 39.77167]}}, {"type": "Feature", "properties": {"id": "081", "elev": 909}, "geometry": {"type": "Point", "coordinates": [20.10367, 40.002]}}, {"type": "Feature", "properties": {"id": "082", "elev": 871}, "geometry": {"type": "Point", "coordinates": [20.103, 39.99367]}}]}