{"type": "FeatureCollection", "features": [{"type": "Feature", "properties": {"when": "2011-08-29 22:59:14.60", "depth": 9.02, "mag": 1.13, "rms": 0.08, "nobs": 40}, "geometry": {"type": "Point", "coordinates": [20.06333, 39.92383]}}, {"type": "Feature", "properties": {"when": "2011-08-30 01:57:34.53", "depth": 8.04, "mag": 1.13, "rms": 0.07, "nobs": 58}, "geometry": {"type": "Point", "coordinates": [20.07517, 39.9345]}}, {"type": "Feature", "properties": {"when": "2011-08-30 08:17:53.56", "depth": 7.42, "mag": 1.35, "rms": 0.07, "nobs": 46}, "geometry": {"type": "Point", "coordinates": [20.0125, 40.00817]}}, {"type": "Feature", "properties": {"when": "2011-08-30 09:53:46.21", "depth": 2.83, "mag": 1.13, "rms": 0.04, "nobs": 8}, "geometry": {"type": "Point", "coordinates": [20.00717, 39.9945]}}, {"type": "Feature", "properties": {"when": "2011-08-30 11:16:05.15", "depth": 9.05, "mag": 1.13, "rms": 0.03, "nobs": 14}, "geometry": {"type": "Point", "coordinates": [20.01983, 40.00683]}}, {"type": "Feature", "properties": {"when": "2011-08-30 17:32:15.15", "depth": 8.03, "mag": 1.53, "rms": 0.05, "nobs": 26}, "geometry": {"type": "Point", "coordinates": [20.01583, 40.00633]}}, {"type": "Feature", "properties": {"when": "2011-08-31 03:32:51.22", "depth": 7.26, "mag": 1.35, "rms": 0.08, "nobs": 38}, "geometry": {"type": "Point", "coordinates": [20.01983, 40.0085]}}, {"type": "Feature", "properties": {"when": "2011-08-31 08:14:24.24", "depth": 4.66, "mag": 1.13, "rms": 0.09, "nobs": 21}, "geometry": {"type": "Point", "coordinates": [20.007, 40.009]}}, {"type": "Feature", "properties": {"when": "2011-08-31 10:34:38.48", "depth": 5.29, "mag": 0.85, "rms": 0.03, "nobs": 10}, "geometry": {"type": "Point", "coordinates": [20.00867, 40.00067]}}, {"type": "Feature", "properties": {"when": "2011-08-31 11:10:28.84", "depth": 6.35, "mag": 1.36, "rms": 0.08, "nobs": 42}, "geometry": {"type": "Point", "coordinates": [20.01133, 40.00567]}}, {"type": "Feature", "properties": {"when": "2011-09-01 00:29:43.80", "depth": 6.84, "mag": 0.85, "rms": 0.07, "nobs": 32}, "geometry": {"type": "Point", "coordinates": [20.08867, 39.92333]}}, {"type": "Feature", "properties": {"when": "2011-09-01 04:53:55.40", "depth": 7.62, "mag": 1.68, "rms": 0.05, "nobs": 48}, "geometry": {"type": "Point", "coordinates": [20.017, 40.0065]}}, {"type": "Feature", "properties": {"when": "2011-09-01 14:51:22.91", "depth": 7.15, "mag": 1.13, "rms": 0.06, "nobs": 44}, "geometry": {"type": "Point", "coordinates": [20.09367, 39.92767]}}, {"type": "Feature", "properties": {"when": "2011-09-03 21:14:26.42", "depth": 13.71, "mag": 1.34, "rms": 0.06, "nobs": 40}, "geometry": {"type": "Point", "coordinates": [20.117, 40.02983]}}, {"type": "Feature", "properties": {"when": "2011-09-04 04:12:28.72", "depth": 3.99, "mag": 1.13, "rms": 0.11, "nobs": 28}, "geometry": {"type": "Point", "coordinates": [20.03983, 39.97517]}}, {"type": "Feature", "properties": {"when": "2011-09-04 18:40:51.05", "depth": 7.34, "mag": 1.35, "rms": 0.07, "nobs": 64}, "geometry": {"type": "Point", "coordinates": [20.0185, 40.00633]}}, {"type": "Feature", "properties": {"when": "2011-09-09 15:11:21.35", "depth": 3.93, "mag": 1.35, "rms": 0.08, "nobs": 83}, "geometry": {"type": "Point", "coordinates": [20.02367, 39.9985]}}, {"type": "Feature", "properties": {"when": "2011-09-10 02:45:12.76", "depth": 6.67, "mag": 1.13, "rms": 0.07, "nobs": 34}, "geometry": {"type": "Point", "coordinates": [20.01417, 40.00383]}}, {"type": "Feature", "properties": {"when": "2011-09-10 15:04:49.96", "depth": 5.56, "mag": 1.13, "rms": 0.09, "nobs": 30}, "geometry": {"type": "Point", "coordinates": [20.01133, 40.00867]}}, {"type": "Feature", "properties": {"when": "2011-09-10 17:44:37.25", "depth": 7.8, "mag": 1.34, "rms": 0.07, "nobs": 24}, "geometry": {"type": "Point", "coordinates": [20.0165, 40.004]}}, {"type": "Feature", "properties": {"when": "2011-09-12 14:34:20.30", "depth": 5.12, "mag": 0.85, "rms": 0.07, "nobs": 18}, "geometry": {"type": "Point", "coordinates": [20.02883, 39.99167]}}, {"type": "Feature", "properties": {"when": "2011-09-12 23:33:35.33", "depth": 4.37, "mag": 1.52, "rms": 0.09, "nobs": 56}, "geometry": {"type": "Point", "coordinates": [20.05267, 40.03133]}}, {"type": "Feature", "properties": {"when": "2011-09-13 12:32:53.13", "depth": 7.09, "mag": 1.13, "rms": 0.09, "nobs": 36}, "geometry": {"type": "Point", "coordinates": [20.01717, 40.0075]}}, {"type": "Feature", "properties": {"when": "2011-09-14 23:16:07.48", "depth": 7.03, "mag": 1.52, "rms": 0.07, "nobs": 60}, "geometry": {"type": "Point", "coordinates": [20.01467, 40.00917]}}, {"type": "Feature", "properties": {"when": "2011-09-15 01:14:51.92", "depth": 5.15, "mag": 1.13, "rms": 0.08, "nobs": 44}, "geometry": {"type": "Point", "coordinates": [20.03683, 39.97817]}}, {"type": "Feature", "properties": {"when": "2011-09-15 06:56:33.73", "depth": 5.62, "mag": 1.35, "rms": 0.08, "nobs": 66}, "geometry": {"type": "Point", "coordinates": [20.03233, 39.9985]}}, {"type": "Feature", "properties": {"when": "2011-09-15 07:32:37.57", "depth": 3.62, "mag": 1.24, "rms": 0.09, "nobs": 52}, "geometry": {"type": "Point", "coordinates": [20.029, 39.9995]}}, {"type": "Feature", "properties": {"when": "2011-09-15 09:05:39.37", "depth": 6.09, "mag": 1.36, "rms": 0.1, "nobs": 48}, "geometry": {"type": "Point", "coordinates": [20.00783, 40.009]}}, {"type": "Feature", "properties": {"when": "2011-09-15 18:48:07.65", "depth": 7.07, "mag": 1.13, "rms": 0.08, "nobs": 32}, "geometry": {"type": "Point", "coordinates": [20.01833, 40.00933]}}, {"type": "Feature", "properties": {"when": "2011-09-16 23:12:32.83", "depth": 5.7, "mag": 1.34, "rms": 0.08, "nobs": 64}, "geometry": {"type": "Point", "coordinates": [20.07317, 39.93933]}}, {"type": "Feature", "properties": {"when": "2011-09-16 23:30:15.54", "depth": 8.5, "mag": 1.13, "rms": 0.07, "nobs": 88}, "geometry": {"type": "Point", "coordinates": [20.068, 39.94017]}}, {"type": "Feature", "properties": {"when": "2011-09-17 00:25:34.61", "depth": 11.37, "mag": 0.85, "rms": 0.05, "nobs": 46}, "geometry": {"type": "Point", "coordinates": [20.06283, 39.93667]}}, {"type": "Feature", "properties": {"when": "2011-09-17 02:31:35.87", "depth": 4.7, "mag": 1.13, "rms": 0.09, "nobs": 24}, "geometry": {"type": "Point", "coordinates": [20.026, 39.994]}}, {"type": "Feature", "properties": {"when": "2011-09-17 03:12:51.20", "depth": 6.57, "mag": 1.67, "rms": 0.08, "nobs": 100}, "geometry": {"type": "Point", "coordinates": [20.02883, 40.0065]}}, {"type": "Feature", "properties": {"when": "2011-09-17 14:58:35.49", "depth": 4.76, "mag": 0.85, "rms": 0.04, "nobs": 14}, "geometry": {"type": "Point", "coordinates": [20.0445, 39.995]}}, {"type": "Feature", "properties": {"when": "2011-09-18 00:10:09.82", "depth": 4.85, "mag": 1.13, "rms": 0.09, "nobs": 36}, "geometry": {"type": "Point", "coordinates": [20.01433, 39.989]}}, {"type": "Feature", "properties": {"when": "2011-09-24 03:06:48.66", "depth": 3.64, "mag": 1.13, "rms": 0.06, "nobs": 62}, "geometry": {"type": "Point", "coordinates": [20.03117, 39.97783]}}, {"type": "Feature", "properties": {"when": "2011-09-24 03:14:25.15", "depth": 3.7, "mag": 1.13, "rms": 0.06, "nobs": 56}, "geometry": {"type": "Point", "coordinates": [20.0335, 39.98033]}}, {"type": "Feature", "properties": {"when": "2011-09-25 14:33:54.71", "depth": 8.36, "mag": 1.35, "rms": 0.07, "nobs": 52}, "geometry": {"type": "Point", "coordinates": [20.0425, 39.9955]}}, {"type": "Feature", "properties": {"when": "2011-09-26 23:29:09.26", "depth": 9.91, "mag": 1.52, "rms": 0.09, "nobs": 71}, "geometry": {"type": "Point", "coordinates": [20.08583, 40.02317]}}, {"type": "Feature", "properties": {"when": "2011-09-27 11:30:19.68", "depth": 2.86, "mag": 0.85, "rms": 0.06, "nobs": 34}, "geometry": {"type": "Point", "coordinates": [20.12333, 39.94867]}}, {"type": "Feature", "properties": {"when": "2011-09-30 21:28:08.99", "depth": 2.16, "mag": 0.46, "rms": 0.07, "nobs": 58}, "geometry": {"type": "Point", "coordinates": [20.09917, 39.9145]}}, {"type": "Feature", "properties": {"when": "2011-10-03 11:41:40.80", "depth": 6.25, "mag": 1.13, "rms": 0.06, "nobs": 32}, "geometry": {"type": "Point", "coordinates": [20.01017, 40.01767]}}, {"type": "Feature", "properties": {"when": "2011-10-06 13:54:18.10", "depth": 0.5, "mag": 1.35, "rms": 0.05, "nobs": 18}, "geometry": {"type": "Point", "coordinates": [20.26917, 39.93467]}}, {"type": "Feature", "properties": {"when": "2011-10-09 05:36:16.44", "depth": 6.07, "mag": 0.85, "rms": 0.05, "nobs": 16}, "geometry": {"type": "Point", "coordinates": [20.07933, 40.04583]}}, {"type": "Feature", "properties": {"when": "2011-10-09 10:22:22.79", "depth": 7.75, "mag": 1.52, "rms": 0.05, "nobs": 81}, "geometry": {"type": "Point", "coordinates": [20.06617, 39.93367]}}, {"type": "Feature", "properties": {"when": "2011-10-09 16:29:12.08", "depth": 10.64, "mag": 1.74, "rms": 0.05, "nobs": 55}, "geometry": {"type": "Point", "coordinates": [20.11467, 40.01867]}}, {"type": "Feature", "properties": {"when": "2011-10-09 18:18:34.98", "depth": 5.65, "mag": 0.86, "rms": 0.06, "nobs": 16}, "geometry": {"type": "Point", "coordinates": [20.01083, 40.0055]}}, {"type": "Feature", "properties": {"when": "2011-10-11 00:48:10.57", "depth": 11.29, "mag": 1.13, "rms": 0.06, "nobs": 62}, "geometry": {"type": "Point", "coordinates": [20.0555, 39.934]}}, {"type": "Feature", "properties": {"when": "2011-10-13 06:31:02.70", "depth": 6.53, "mag": 1.13, "rms": 0.09, "nobs": 24}, "geometry": {"type": "Point", "coordinates": [19.98783, 39.999]}}, {"type": "Feature", "properties": {"when": "2011-10-17 12:05:08.14", "depth": 0.71, "mag": 1.13, "rms": 0.08, "nobs": 78}, "geometry": {"type": "Point", "coordinates": [20.1315, 39.90233]}}, {"type": "Feature", "properties": {"when": "2011-10-18 00:39:28.33", "depth": 8.38, "mag": 1.13, "rms": 0.06, "nobs": 70}, "geometry": {"type": "Point", "coordinates": [20.07583, 39.92633]}}, {"type": "Feature", "properties": {"when": "2011-10-18 06:48:16.32", "depth": 10.36, "mag": 1.13, "rms": 0.06, "nobs": 54}, "geometry": {"type": "Point", "coordinates": [20.0455, 39.93433]}}, {"type": "Feature", "properties": {"when": "2011-10-19 05:27:03.24", "depth": 5.26, "mag": 1.8, "rms": 0.06, "nobs": 67}, "geometry": {"type": "Point", "coordinates": [20.08, 40.02733]}}, {"type": "Feature", "properties": {"when": "2011-10-19 10:33:24.18", "depth": 4.57, "mag": 1.35, "rms": 0.08, "nobs": 22}, "geometry": {"type": "Point", "coordinates": [20.08267, 39.91417]}}, {"type": "Feature", "properties": {"when": "2011-10-20 05:44:15.85", "depth": 7.33, "mag": 1.13, "rms": 0.07, "nobs": 40}, "geometry": {"type": "Point", "coordinates": [20.153, 39.85517]}}, {"type": "Feature", "properties": {"when": "2011-10-21 16:24:37.15", "depth": 3.47, "mag": 1.52, "rms": 0.08, "nobs": 52}, "geometry": {"type": "Point", "coordinates": [20.15533, 39.86917]}}, {"type": "Feature", "properties": {"when": "2011-10-26 20:03:43.13", "depth": 3.79, "mag": 1.8, "rms": 0.09, "nobs": 56}, "geometry": {"type": "Point", "coordinates": [20.04633, 40.03583]}}, {"type": "Feature", "properties": {"when": "2011-10-27 20:35:59.37", "depth": 5.62, "mag": 1.8, "rms": 0.07, "nobs": 40}, "geometry": {"type": "Point", "coordinates": [20.02933, 39.996]}}, {"type": "Feature", "properties": {"when": "2011-10-29 13:55:06.11", "depth": 2.69, "mag": 0.85, "rms": 0.11, "nobs": 46}, "geometry": {"type": "Point", "coordinates": [20.083, 39.943]}}, {"type": "Feature", "properties": {"when": "2011-10-30 22:25:12.93", "depth": 6.96, "mag": 1.35, "rms": 0.06, "nobs": 62}, "geometry": {"type": "Point", "coordinates": [20.12067, 39.904]}}, {"type": "Feature", "properties": {"when": "2011-11-01 03:27:49.76", "depth": 10.97, "mag": 1.13, "rms": 0.04, "nobs": 50}, "geometry": {"type": "Point", "coordinates": [20.05433, 39.93883]}}, {"type": "Feature", "properties": {"when": "2011-11-01 05:24:36.13", "depth": 10.22, "mag": 1.13, "rms": 0.05, "nobs": 58}, "geometry": {"type": "Point", "coordinates": [20.07167, 39.92167]}}, {"type": "Feature", "properties": {"when": "2011-11-01 05:25:11.20", "depth": 8.33, "mag": 0.99, "rms": 0.06, "nobs": 58}, "geometry": {"type": "Point", "coordinates": [20.07567, 39.92383]}}, {"type": "Feature", "properties": {"when": "2011-11-02 01:14:44.62", "depth": 9.46, "mag": 1.13, "rms": 0.07, "nobs": 76}, "geometry": {"type": "Point", "coordinates": [20.073, 39.92667]}}, {"type": "Feature", "properties": {"when": "2011-11-02 10:52:32.31", "depth": 9.3, "mag": 1.13, "rms": 0.04, "nobs": 40}, "geometry": {"type": "Point", "coordinates": [20.0995, 39.91683]}}, {"type": "Feature", "properties": {"when": "2011-11-02 11:44:21.79", "depth": 8.02, "mag": 1.35, "rms": 0.05, "nobs": 95}, "geometry": {"type": "Point", "coordinates": [20.07183, 39.9335]}}, {"type": "Feature", "properties": {"when": "2011-11-04 12:52:42.78", "depth": 9.85, "mag": 1.13, "rms": 0.05, "nobs": 46}, "geometry": {"type": "Point", "coordinates": [20.05367, 39.94533]}}, {"type": "Feature", "properties": {"when": "2011-11-07 16:09:33.89", "depth": 5.93, "mag": 1.13, "rms": 0.05, "nobs": 36}, "geometry": {"type": "Point", "coordinates": [20.01367, 40.00283]}}, {"type": "Feature", "properties": {"when": "2011-11-09 13:39:37.48", "depth": 7.67, "mag": 0.85, "rms": 0.05, "nobs": 50}, "geometry": {"type": "Point", "coordinates": [20.08133, 39.92633]}}, {"type": "Feature", "properties": {"when": "2011-11-10 08:49:52.02", "depth": 9.15, "mag": 0.85, "rms": 0.06, "nobs": 70}, "geometry": {"type": "Point", "coordinates": [20.07283, 39.92583]}}, {"type": "Feature", "properties": {"when": "2011-11-12 20:51:42.45", "depth": 4.94, "mag": 1.13, "rms": 0.13, "nobs": 18}, "geometry": {"type": "Point", "coordinates": [20.02517, 40.0235]}}, {"type": "Feature", "properties": {"when": "2011-11-13 02:08:52.95", "depth": 0.5, "mag": 1.35, "rms": 0.13, "nobs": 28}, "geometry": {"type": "Point", "coordinates": [20.23167, 39.97933]}}, {"type": "Feature", "properties": {"when": "2011-11-13 04:53:29.78", "depth": 5.73, "mag": 1.13, "rms": 0.07, "nobs": 40}, "geometry": {"type": "Point", "coordinates": [20.0455, 39.99617]}}, {"type": "Feature", "properties": {"when": "2011-11-18 22:50:24.83", "depth": 7.63, "mag": 1.13, "rms": 0.06, "nobs": 68}, "geometry": {"type": "Point", "coordinates": [20.07367, 39.931]}}, {"type": "Feature", "properties": {"when": "2011-11-22 17:24:45.96", "depth": 8.09, "mag": 1.34, "rms": 0.05, "nobs": 83}, "geometry": {"type": "Point", "coordinates": [20.066, 39.93383]}}, {"type": "Feature", "properties": {"when": "2011-11-26 09:18:01.30", "depth": 3.59, "mag": 1.68, "rms": 0.09, "nobs": 72}, "geometry": {"type": "Point", "coordinates": [20.05883, 40.01467]}}, {"type": "Feature", "properties": {"when": "2011-11-28 21:20:06.10", "depth": 4.68, "mag": 1.24, "rms": 0.07, "nobs": 68}, "geometry": {"type": "Point", "coordinates": [20.05233, 39.98517]}}, {"type": "Feature", "properties": {"when": "2011-11-29 17:08:35.91", "depth": 8.61, "mag": 1.67, "rms": 0.09, "nobs": 89}, "geometry": {"type": "Point", "coordinates": [20.09533, 40.02083]}}, {"type": "Feature", "properties": {"when": "2011-11-30 01:17:51.48", "depth": 0.5, "mag": 1.92, "rms": 0.1, "nobs": 42}, "geometry": {"type": "Point", "coordinates": [20.05017, 40.06217]}}, {"type": "Feature", "properties": {"when": "2011-12-01 04:24:08.04", "depth": 0.5, "mag": 1.35, "rms": 0.11, "nobs": 60}, "geometry": {"type": "Point", "coordinates": [20.17383, 39.8805]}}, {"type": "Feature", "properties": {"when": "2011-12-03 11:25:12.23", "depth": 10.12, "mag": 1.35, "rms": 0.11, "nobs": 34}, "geometry": {"type": "Point", "coordinates": [20.0825, 39.8745]}}, {"type": "Feature", "properties": {"when": "2011-12-09 23:10:28.30", "depth": 2.83, "mag": 1.13, "rms": 0.1, "nobs": 48}, "geometry": {"type": "Point", "coordinates": [20.0315, 39.99683]}}, {"type": "Feature", "properties": {"when": "2011-12-14 07:12:22.48", "depth": 11.53, "mag": 0.99, "rms": 0.05, "nobs": 32}, "geometry": {"type": "Point", "coordinates": [20.06017, 39.92933]}}, {"type": "Feature", "properties": {"when": "2011-12-14 09:47:53.61", "depth": 6.25, "mag": 1.34, "rms": 0.09, "nobs": 51}, "geometry": {"type": "Point", "coordinates": [20.06367, 39.9405]}}, {"type": "Feature", "properties": {"when": "2011-12-18 11:04:23.37", "depth": 11.31, "mag": 1.35, "rms": 0.1, "nobs": 32}, "geometry": {"type": "Point", "coordinates": [20.09367, 40.03783]}}, {"type": "Feature", "properties": {"when": "2011-12-18 22:26:19.83", "depth": 7.28, "mag": 1.91, "rms": 0.09, "nobs": 24}, "geometry": {"type": "Point", "coordinates": [20.0045, 40.0645]}}, {"type": "Feature", "properties": {"when": "2011-12-20 02:00:44.30", "depth": 0.5, "mag": 1.13, "rms": 0.1, "nobs": 52}, "geometry": {"type": "Point", "coordinates": [20.06183, 40.01133]}}, {"type": "Feature", "properties": {"when": "2011-12-20 02:12:34.60", "depth": 1.84, "mag": 1.24, "rms": 0.06, "nobs": 52}, "geometry": {"type": "Point", "coordinates": [20.0355, 39.97617]}}, {"type": "Feature", "properties": {"when": "2011-12-20 05:53:32.29", "depth": 2.65, "mag": 1.13, "rms": 0.08, "nobs": 68}, "geometry": {"type": "Point", "coordinates": [20.0285, 39.97717]}}, {"type": "Feature", "properties": {"when": "2011-12-22 20:34:01.13", "depth": 8.59, "mag": 1.13, "rms": 0.06, "nobs": 28}, "geometry": {"type": "Point", "coordinates": [20.07583, 39.92717]}}, {"type": "Feature", "properties": {"when": "2011-12-24 08:55:07.54", "depth": 5.1, "mag": 0.85, "rms": 0.07, "nobs": 12}, "geometry": {"type": "Point", "coordinates": [20.06933, 40.01833]}}, {"type": "Feature", "properties": {"when": "2011-12-24 08:55:06.88", "depth": 2.74, "mag": 1.13, "rms": 0.08, "nobs": 12}, "geometry": {"type": "Point", "coordinates": [20.068, 40.07883]}}, {"type": "Feature", "properties": {"when": "2011-12-24 19:22:12.03", "depth": 5.3, "mag": 1.67, "rms": 0.08, "nobs": 26}, "geometry": {"type": "Point", "coordinates": [20.18767, 39.89567]}}, {"type": "Feature", "properties": {"when": "2011-12-24 22:47:37.70", "depth": 8.07, "mag": 1.13, "rms": 0.03, "nobs": 16}, "geometry": {"type": "Point", "coordinates": [20.08367, 39.938]}}, {"type": "Feature", "properties": {"when": "2011-12-29 16:11:45.07", "depth": 5.2, "mag": 1.35, "rms": 0.09, "nobs": 48}, "geometry": {"type": "Point", "coordinates": [20.18133, 39.85867]}}, {"type": "Feature", "properties": {"when": "2011-12-29 20:44:06.30", "depth": 8.86, "mag": 1.52, "rms": 0.08, "nobs": 38}, "geometry": {"type": "Point", "coordinates": [20.09, 40.03283]}}, {"type": "Feature", "properties": {"when": "2012-01-14 07:24:01.65", "depth": 5.27, "mag": 1.13, "rms": 0.08, "nobs": 28}, "geometry": {"type": "Point", "coordinates": [20.10133, 39.93333]}}, {"type": "Feature", "properties": {"when": "2012-01-14 14:19:37.51", "depth": 2.96, "mag": 0.86, "rms": 0.09, "nobs": 49}, "geometry": {"type": "Point", "coordinates": [19.99967, 39.895]}}, {"type": "Feature", "properties": {"when": "2012-01-14 15:43:51.67", "depth": 7.76, "mag": 2.84, "rms": 0.09, "nobs": 77}, "geometry": {"type": "Point", "coordinates": [19.93033, 40.128]}}, {"type": "Feature", "properties": {"when": "2012-01-15 16:14:04.09", "depth": 7.49, "mag": 1.35, "rms": 0.08, "nobs": 22}, "geometry": {"type": "Point", "coordinates": [20.08767, 40.02883]}}, {"type": "Feature", "properties": {"when": "2012-01-16 12:37:35.44", "depth": 0.85, "mag": 1.44, "rms": 0.08, "nobs": 27}, "geometry": {"type": "Point", "coordinates": [20.03983, 39.91]}}, {"type": "Feature", "properties": {"when": "2012-01-16 21:48:53.80", "depth": 2.01, "mag": 2.03, "rms": 0.14, "nobs": 31}, "geometry": {"type": "Point", "coordinates": [19.943, 40.116]}}, {"type": "Feature", "properties": {"when": "2012-01-17 01:52:30.20", "depth": 2.26, "mag": 2.35, "rms": 0.08, "nobs": 95}, "geometry": {"type": "Point", "coordinates": [20.075, 40.13417]}}, {"type": "Feature", "properties": {"when": "2012-01-17 18:49:37.24", "depth": 8.15, "mag": 2.11, "rms": 0.08, "nobs": 92}, "geometry": {"type": "Point", "coordinates": [20.01167, 40.0585]}}, {"type": "Feature", "properties": {"when": "2012-01-20 01:25:23.82", "depth": 12.84, "mag": 1.92, "rms": 0.06, "nobs": 42}, "geometry": {"type": "Point", "coordinates": [20.007, 40.07767]}}, {"type": "Feature", "properties": {"when": "2012-01-21 05:38:57.90", "depth": 5.12, "mag": 1.81, "rms": 0.06, "nobs": 77}, "geometry": {"type": "Point", "coordinates": [19.99883, 40.03583]}}, {"type": "Feature", "properties": {"when": "2012-01-21 19:37:17.06", "depth": 7.08, "mag": 1.14, "rms": 0.08, "nobs": 83}, "geometry": {"type": "Point", "coordinates": [20.06983, 39.93617]}}, {"type": "Feature", "properties": {"when": "2012-01-22 10:30:02.50", "depth": 8.47, "mag": 1.81, "rms": 0.08, "nobs": 39}, "geometry": {"type": "Point", "coordinates": [19.99533, 40.07183]}}, {"type": "Feature", "properties": {"when": "2012-01-26 03:39:02.88", "depth": 7.76, "mag": 1.34, "rms": 0.05, "nobs": 41}, "geometry": {"type": "Point", "coordinates": [20.06567, 39.92633]}}, {"type": "Feature", "properties": {"when": "2012-01-26 07:42:35.26", "depth": 6.87, "mag": 1.52, "rms": 0.07, "nobs": 18}, "geometry": {"type": "Point", "coordinates": [20.07333, 39.95783]}}, {"type": "Feature", "properties": {"when": "2012-01-27 13:37:23.50", "depth": 0.5, "mag": 1.92, "rms": 0.07, "nobs": 24}, "geometry": {"type": "Point", "coordinates": [20.28267, 39.95517]}}, {"type": "Feature", "properties": {"when": "2012-01-11 19:04:59.28", "depth": 10.26, "mag": 1.8, "rms": 0.1, "nobs": 17}, "geometry": {"type": "Point", "coordinates": [20.02883, 40.01583]}}, {"type": "Feature", "properties": {"when": "2012-01-28 13:41:06.86", "depth": 5.45, "mag": 1.13, "rms": 0.06, "nobs": 31}, "geometry": {"type": "Point", "coordinates": [20.061, 39.939]}}, {"type": "Feature", "properties": {"when": "2012-01-11 18:24:38.86", "depth": 8.62, "mag": 1.67, "rms": 0.07, "nobs": 82}, "geometry": {"type": "Point", "coordinates": [20.07417, 39.93467]}}, {"type": "Feature", "properties": {"when": "2012-01-11 11:58:45.83", "depth": 6.6, "mag": 1.59, "rms": 0.07, "nobs": 54}, "geometry": {"type": "Point", "coordinates": [20.071, 39.931]}}, {"type": "Feature", "properties": {"when": "2012-01-30 17:28:42.34", "depth": 1.72, "mag": 1.13, "rms": 0.09, "nobs": 9}, "geometry": {"type": "Point", "coordinates": [20.03633, 40.05317]}}, {"type": "Feature", "properties": {"when": "2012-01-31 00:13:30.12", "depth": 7.95, "mag": 1.52, "rms": 0.07, "nobs": 57}, "geometry": {"type": "Point", "coordinates": [20.1045, 39.92983]}}, {"type": "Feature", "properties": {"when": "2012-01-31 00:13:30.10", "depth": 8.06, "mag": 1.52, "rms": 0.07, "nobs": 59}, "geometry": {"type": "Point", "coordinates": [20.1045, 39.92967]}}, {"type": "Feature", "properties": {"when": "2012-01-31 00:38:20.96", "depth": 7.37, "mag": 1.24, "rms": 0.05, "nobs": 18}, "geometry": {"type": "Point", "coordinates": [20.048, 39.94317]}}, {"type": "Feature", "properties": {"when": "2012-01-31 00:38:20.98", "depth": 5.56, "mag": 1.13, "rms": 0.08, "nobs": 24}, "geometry": {"type": "Point", "coordinates": [20.07733, 39.92267]}}, {"type": "Feature", "properties": {"when": "2012-01-31 02:16:21.59", "depth": 7.88, "mag": 1.34, "rms": 0.07, "nobs": 29}, "geometry": {"type": "Point", "coordinates": [20.04483, 39.9395]}}, {"type": "Feature", "properties": {"when": "2012-01-31 04:22:44.46", "depth": 0.5, "mag": 1.68, "rms": 0.11, "nobs": 12}, "geometry": {"type": "Point", "coordinates": [20.0025, 40.09233]}}, {"type": "Feature", "properties": {"when": "2012-01-31 04:22:44.39", "depth": 0.5, "mag": 1.68, "rms": 0.11, "nobs": 14}, "geometry": {"type": "Point", "coordinates": [19.994, 40.09367]}}, {"type": "Feature", "properties": {"when": "2012-01-31 14:44:17.33", "depth": 1.4, "mag": 1.67, "rms": 0.11, "nobs": 18}, "geometry": {"type": "Point", "coordinates": [20.0545, 40.06267]}}, {"type": "Feature", "properties": {"when": "2012-01-31 14:44:17.23", "depth": 0.5, "mag": 1.52, "rms": 0.13, "nobs": 16}, "geometry": {"type": "Point", "coordinates": [20.04767, 40.06917]}}, {"type": "Feature", "properties": {"when": "2012-01-31 18:45:10.19", "depth": 2.54, "mag": 1.13, "rms": 0.08, "nobs": 16}, "geometry": {"type": "Point", "coordinates": [20.01683, 39.99783]}}, {"type": "Feature", "properties": {"when": "2012-01-31 18:45:09.81", "depth": 5.53, "mag": 1.13, "rms": 0.04, "nobs": 16}, "geometry": {"type": "Point", "coordinates": [20.01567, 39.9985]}}, {"type": "Feature", "properties": {"when": "2012-02-01 16:22:00.23", "depth": 2.62, "mag": 1.13, "rms": 0.05, "nobs": 15}, "geometry": {"type": "Point", "coordinates": [20.00917, 40.00267]}}, {"type": "Feature", "properties": {"when": "2012-02-01 16:22:00.01", "depth": 4.03, "mag": 1.13, "rms": 0.06, "nobs": 16}, "geometry": {"type": "Point", "coordinates": [20.00483, 40.00983]}}, {"type": "Feature", "properties": {"when": "2012-02-01 18:02:06.13", "depth": 4.74, "mag": 1.67, "rms": 0.07, "nobs": 22}, "geometry": {"type": "Point", "coordinates": [20.02467, 40.0415]}}, {"type": "Feature", "properties": {"when": "2012-02-01 18:02:05.09", "depth": 9.54, "mag": 1.68, "rms": 0.07, "nobs": 22}, "geometry": {"type": "Point", "coordinates": [20.0165, 40.07933]}}, {"type": "Feature", "properties": {"when": "2012-02-03 04:35:49.71", "depth": 4.99, "mag": 1.67, "rms": 0.12, "nobs": 8}, "geometry": {"type": "Point", "coordinates": [19.93583, 40.08967]}}, {"type": "Feature", "properties": {"when": "2012-02-03 04:35:49.68", "depth": 6.14, "mag": 1.67, "rms": 0.13, "nobs": 8}, "geometry": {"type": "Point", "coordinates": [19.9375, 40.087]}}, {"type": "Feature", "properties": {"when": "2012-02-03 12:45:35.24", "depth": 3.69, "mag": 1.35, "rms": 0.09, "nobs": 18}, "geometry": {"type": "Point", "coordinates": [20.0165, 40.00367]}}, {"type": "Feature", "properties": {"when": "2012-02-03 12:45:35.18", "depth": 3.93, "mag": 1.35, "rms": 0.08, "nobs": 18}, "geometry": {"type": "Point", "coordinates": [20.015, 40.00583]}}, {"type": "Feature", "properties": {"when": "2012-02-04 12:29:19.76", "depth": 4.56, "mag": 1.8, "rms": 0.08, "nobs": 22}, "geometry": {"type": "Point", "coordinates": [19.98767, 40.02367]}}, {"type": "Feature", "properties": {"when": "2012-02-04 12:29:18.92", "depth": 7.24, "mag": 1.81, "rms": 0.08, "nobs": 21}, "geometry": {"type": "Point", "coordinates": [19.9615, 40.0575]}}, {"type": "Feature", "properties": {"when": "2012-02-05 05:58:11.80", "depth": 2.12, "mag": 1.67, "rms": 0.01, "nobs": 4}, "geometry": {"type": "Point", "coordinates": [19.95583, 40.0675]}}]}